<?xml version="1.0" encoding="UTF-8"?>
<gpx schemaLocation="http://www.topografix.com/GPX/1/1 
     http://www.topografix.com/GPX/1/1/gpx.xsd" version="1.1" creator="YourAppName" xmlns="http://www.topografix.com/GPX/1/1" xmlns:xsi="http://www.w3.org/2001/XMLSchema-instance" xsi:schemaLocation="http://www.topografix.com/GPX/1/1 http://www.topografix.com/GPX/1/1/gpx.xsd http://www.garmin.com/xmlschemas/GpxExtensions/v3 http://www.garmin.com/xmlschemas/GpxExtensionsv3.xsd http://www.garmin.com/xmlschemas/TrackPointExtension/v1 http://www.garmin.com/xmlschemas/TrackPointExtensionv1.xsd http://www.garmin.com/xmlschemas/PowerExtension/v1 http://www.garmin.com/xmlschemas/PowerExtensionv1.xsd http://www.topografix.com/GPX/gpx_style/0/2 http://www.topografix.com/GPX/gpx_style/0/2/gpx_style.xsd" xmlns:gpxtpx="http://www.garmin.com/xmlschemas/TrackPointExtension/v1" xmlns:gpxx="http://www.garmin.com/xmlschemas/GpxExtensions/v3" xmlns:gpxpx="http://www.garmin.com/xmlschemas/PowerExtension/v1" xmlns:gpx_style="http://www.topografix.com/GPX/gpx_style/0/2">
  <metadata>
    <name>autumn favourite</name>
    <author>
      <name>gpx.studio</name>
      <link href="https://gpx.studio"/>
    </author>
  </metadata>
  <trk>
    <name>autumn favourite</name>
    <trkseg>
      <trkpt lat="48.307769" lon="10.917443">
        <ele>498</ele>
      </trkpt>
      <trkpt lat="48.307771" lon="10.917548">
        <ele>498</ele>
      </trkpt>
      <trkpt lat="48.307704" lon="10.917635">
        <ele>498</ele>
      </trkpt>
      <trkpt lat="48.307447" lon="10.918513">
        <ele>498</ele>
      </trkpt>
      <trkpt lat="48.307323" lon="10.918967">
        <ele>498</ele>
      </trkpt>
      <trkpt lat="48.30665" lon="10.922758">
        <ele>499</ele>
      </trkpt>
      <trkpt lat="48.306403" lon="10.922913">
        <ele>499</ele>
      </trkpt>
      <trkpt lat="48.306319" lon="10.92293">
        <ele>499</ele>
      </trkpt>
      <trkpt lat="48.3063214" lon="10.92295396"/>
      <trkpt lat="48.30628455" lon="10.92296398"/>
      <trkpt lat="48.30624611" lon="10.92296906"/>
      <trkpt lat="48.30621022" lon="10.92296685"/>
      <trkpt lat="48.30617508" lon="10.92295556"/>
      <trkpt lat="48.30613917" lon="10.9229321"/>
      <trkpt lat="48.30610535" lon="10.92289935"/>
      <trkpt lat="48.30607342" lon="10.9228695"/>
      <trkpt lat="48.30604106" lon="10.92284229"/>
      <trkpt lat="48.30600898" lon="10.92281003"/>
      <trkpt lat="48.3059769" lon="10.92277407"/>
      <trkpt lat="48.30594555" lon="10.92273806"/>
      <trkpt lat="48.3059142" lon="10.92270539"/>
      <trkpt lat="48.30588371" lon="10.92267696"/>
      <trkpt lat="48.30585284" lon="10.92264705"/>
      <trkpt lat="48.30582146" lon="10.92261861"/>
      <trkpt lat="48.30578989" lon="10.92259011"/>
      <trkpt lat="48.30576005" lon="10.92256069"/>
      <trkpt lat="48.30573023" lon="10.92253089"/>
      <trkpt lat="48.30569972" lon="10.92249812"/>
      <trkpt lat="48.30567174" lon="10.92246483"/>
      <trkpt lat="48.30564271" lon="10.92243425"/>
      <trkpt lat="48.30561212" lon="10.92240454"/>
      <trkpt lat="48.30558209" lon="10.92237833"/>
      <trkpt lat="48.30555321" lon="10.92234911"/>
      <trkpt lat="48.30552694" lon="10.92231735"/>
      <trkpt lat="48.30550093" lon="10.92228698"/>
      <trkpt lat="48.30547505" lon="10.92226011"/>
      <trkpt lat="48.30544566" lon="10.92223167"/>
      <trkpt lat="48.30541476" lon="10.92220357"/>
      <trkpt lat="48.30538565" lon="10.92217319"/>
      <trkpt lat="48.30535737" lon="10.92214194"/>
      <trkpt lat="48.30532897" lon="10.92211096"/>
      <trkpt lat="48.3053012" lon="10.92208028"/>
      <trkpt lat="48.30527316" lon="10.92205169"/>
      <trkpt lat="48.30524509" lon="10.92202352"/>
      <trkpt lat="48.30521837" lon="10.92199722"/>
      <trkpt lat="48.30519256" lon="10.92196625"/>
      <trkpt lat="48.30516662" lon="10.92193613"/>
      <trkpt lat="48.30513787" lon="10.92191076"/>
      <trkpt lat="48.30511" lon="10.92188527"/>
      <trkpt lat="48.3050837" lon="10.92185832"/>
      <trkpt lat="48.3050538" lon="10.92183031"/>
      <trkpt lat="48.30502791" lon="10.92180222"/>
      <trkpt lat="48.30500261" lon="10.92177273"/>
      <trkpt lat="48.30497611" lon="10.92174146"/>
      <trkpt lat="48.30494972" lon="10.92171227"/>
      <trkpt lat="48.30492355" lon="10.92168481"/>
      <trkpt lat="48.30489711" lon="10.92165762"/>
      <trkpt lat="48.30487116" lon="10.92163426"/>
      <trkpt lat="48.30484418" lon="10.92160857"/>
      <trkpt lat="48.30481677" lon="10.92158129"/>
      <trkpt lat="48.3047905" lon="10.92155791"/>
      <trkpt lat="48.3047643" lon="10.92153462"/>
      <trkpt lat="48.30473703" lon="10.92151066"/>
      <trkpt lat="48.30471104" lon="10.92148519"/>
      <trkpt lat="48.3046874" lon="10.92145552"/>
      <trkpt lat="48.3046632" lon="10.92142631"/>
      <trkpt lat="48.3046384" lon="10.92140332"/>
      <trkpt lat="48.30461197" lon="10.92138351"/>
      <trkpt lat="48.30458526" lon="10.92136149"/>
      <trkpt lat="48.30455891" lon="10.92133549"/>
      <trkpt lat="48.30453538" lon="10.92131157"/>
      <trkpt lat="48.30450965" lon="10.92128321"/>
      <trkpt lat="48.30448388" lon="10.92125543"/>
      <trkpt lat="48.30445835" lon="10.92122828"/>
      <trkpt lat="48.30443416" lon="10.92119993"/>
      <trkpt lat="48.30441077" lon="10.92117404"/>
      <trkpt lat="48.30438546" lon="10.92115033"/>
      <trkpt lat="48.30436297" lon="10.92112446"/>
      <trkpt lat="48.30434006" lon="10.92109789"/>
      <trkpt lat="48.30431786" lon="10.92107444"/>
      <trkpt lat="48.30429479" lon="10.92105055"/>
      <trkpt lat="48.30427094" lon="10.92102365"/>
      <trkpt lat="48.30424643" lon="10.92099201"/>
      <trkpt lat="48.30421907" lon="10.92096174"/>
      <trkpt lat="48.3041896" lon="10.92093343"/>
      <trkpt lat="48.30416027" lon="10.92090156"/>
      <trkpt lat="48.30412828" lon="10.92086418"/>
      <trkpt lat="48.3040939" lon="10.92082664"/>
      <trkpt lat="48.30405887" lon="10.92079262"/>
      <trkpt lat="48.30402519" lon="10.92075821"/>
      <trkpt lat="48.30399073" lon="10.92072453"/>
      <trkpt lat="48.30395816" lon="10.92069161"/>
      <trkpt lat="48.30392275" lon="10.92065854"/>
      <trkpt lat="48.30389188" lon="10.92062705"/>
      <trkpt lat="48.30386166" lon="10.92059053"/>
      <trkpt lat="48.30382929" lon="10.92055672"/>
      <trkpt lat="48.30379992" lon="10.92053152"/>
      <trkpt lat="48.30376736" lon="10.92050021"/>
      <trkpt lat="48.30374072" lon="10.92047021"/>
      <trkpt lat="48.30371942" lon="10.92043895"/>
      <trkpt lat="48.30369709" lon="10.9204084"/>
      <trkpt lat="48.30366828" lon="10.92038371"/>
      <trkpt lat="48.30363493" lon="10.92035736"/>
      <trkpt lat="48.30360391" lon="10.9203311"/>
      <trkpt lat="48.3035742" lon="10.92030577"/>
      <trkpt lat="48.3035413" lon="10.92027888"/>
      <trkpt lat="48.30350699" lon="10.92025068"/>
      <trkpt lat="48.30347404" lon="10.92022495"/>
      <trkpt lat="48.30344026" lon="10.92020487"/>
      <trkpt lat="48.30340656" lon="10.92018673"/>
      <trkpt lat="48.3033721" lon="10.92016847"/>
      <trkpt lat="48.30334097" lon="10.92014805"/>
      <trkpt lat="48.30330709" lon="10.92012926"/>
      <trkpt lat="48.3032707" lon="10.92011395"/>
      <trkpt lat="48.30323692" lon="10.92009464"/>
      <trkpt lat="48.30320406" lon="10.92007387"/>
      <trkpt lat="48.30317176" lon="10.92005698"/>
      <trkpt lat="48.30313703" lon="10.92003989"/>
      <trkpt lat="48.30310292" lon="10.92002073"/>
      <trkpt lat="48.30306952" lon="10.92000123"/>
      <trkpt lat="48.30303643" lon="10.91998311"/>
      <trkpt lat="48.30300269" lon="10.91996241"/>
      <trkpt lat="48.30296933" lon="10.91994161"/>
      <trkpt lat="48.3029366" lon="10.91992297"/>
      <trkpt lat="48.30290231" lon="10.91990443"/>
      <trkpt lat="48.30286708" lon="10.91988621"/>
      <trkpt lat="48.30283545" lon="10.91987096"/>
      <trkpt lat="48.30280252" lon="10.91985734"/>
      <trkpt lat="48.30277058" lon="10.91984151"/>
      <trkpt lat="48.30273703" lon="10.91982244"/>
      <trkpt lat="48.30270374" lon="10.91980501"/>
      <trkpt lat="48.30266994" lon="10.919787"/>
      <trkpt lat="48.30263586" lon="10.91977194"/>
      <trkpt lat="48.30259976" lon="10.91975651"/>
      <trkpt lat="48.30256455" lon="10.91973785"/>
      <trkpt lat="48.30253066" lon="10.91971947"/>
      <trkpt lat="48.30249615" lon="10.91970205"/>
      <trkpt lat="48.30246307" lon="10.91968152"/>
      <trkpt lat="48.30243245" lon="10.91965898"/>
      <trkpt lat="48.30240045" lon="10.91963916"/>
      <trkpt lat="48.30236791" lon="10.91962273"/>
      <trkpt lat="48.30233456" lon="10.91960648"/>
      <trkpt lat="48.30230311" lon="10.91958826"/>
      <trkpt lat="48.30227222" lon="10.91957025"/>
      <trkpt lat="48.30224192" lon="10.91955671"/>
      <trkpt lat="48.30220779" lon="10.91954153"/>
      <trkpt lat="48.30217408" lon="10.91952522"/>
      <trkpt lat="48.30214021" lon="10.91951001"/>
      <trkpt lat="48.30210624" lon="10.919494"/>
      <trkpt lat="48.30207236" lon="10.91947701"/>
      <trkpt lat="48.30203764" lon="10.91946095"/>
      <trkpt lat="48.30200272" lon="10.91944459"/>
      <trkpt lat="48.30196829" lon="10.91942757"/>
      <trkpt lat="48.30193514" lon="10.91940955"/>
      <trkpt lat="48.30190058" lon="10.91939241"/>
      <trkpt lat="48.30186741" lon="10.91937513"/>
      <trkpt lat="48.30183545" lon="10.9193586"/>
      <trkpt lat="48.30180444" lon="10.91934425"/>
      <trkpt lat="48.30177357" lon="10.91932962"/>
      <trkpt lat="48.30174131" lon="10.91931346"/>
      <trkpt lat="48.30170956" lon="10.91929484"/>
      <trkpt lat="48.30167805" lon="10.91927608"/>
      <trkpt lat="48.30164663" lon="10.91925886"/>
      <trkpt lat="48.30161685" lon="10.9192442"/>
      <trkpt lat="48.30158562" lon="10.91922883"/>
      <trkpt lat="48.30155519" lon="10.91921116"/>
      <trkpt lat="48.30152587" lon="10.9191958"/>
      <trkpt lat="48.30149544" lon="10.91918496"/>
      <trkpt lat="48.30146575" lon="10.91917448"/>
      <trkpt lat="48.30143806" lon="10.91916069"/>
      <trkpt lat="48.30140912" lon="10.91914167"/>
      <trkpt lat="48.30138" lon="10.9191231"/>
      <trkpt lat="48.30135218" lon="10.91910935"/>
      <trkpt lat="48.30132462" lon="10.91909742"/>
      <trkpt lat="48.30129703" lon="10.91908396"/>
      <trkpt lat="48.30126866" lon="10.91906794"/>
      <trkpt lat="48.30124058" lon="10.91905489"/>
      <trkpt lat="48.30118856" lon="10.91902882"/>
      <trkpt lat="48.30116117" lon="10.9190137"/>
      <trkpt lat="48.30113339" lon="10.91899692"/>
      <trkpt lat="48.30110292" lon="10.91898056"/>
      <trkpt lat="48.30107208" lon="10.91896322"/>
      <trkpt lat="48.30104042" lon="10.91894583"/>
      <trkpt lat="48.30100794" lon="10.91892777"/>
      <trkpt lat="48.3009763" lon="10.91890899"/>
      <trkpt lat="48.30094471" lon="10.91889188"/>
      <trkpt lat="48.30091317" lon="10.91887493"/>
      <trkpt lat="48.30088258" lon="10.91885785"/>
      <trkpt lat="48.30085044" lon="10.918841"/>
      <trkpt lat="48.30081711" lon="10.91882424"/>
      <trkpt lat="48.30078442" lon="10.91880875"/>
      <trkpt lat="48.30075155" lon="10.9187933"/>
      <trkpt lat="48.30071839" lon="10.9187788"/>
      <trkpt lat="48.30068664" lon="10.91876102"/>
      <trkpt lat="48.30065261" lon="10.91874382"/>
      <trkpt lat="48.30061815" lon="10.91872771"/>
      <trkpt lat="48.30058207" lon="10.91871164"/>
      <trkpt lat="48.30054607" lon="10.91869766"/>
      <trkpt lat="48.30051131" lon="10.91868597"/>
      <trkpt lat="48.3004773" lon="10.91867274"/>
      <trkpt lat="48.30044605" lon="10.91866093"/>
      <trkpt lat="48.30041286" lon="10.91864642"/>
      <trkpt lat="48.30037942" lon="10.91863541"/>
      <trkpt lat="48.3003495" lon="10.91862611"/>
      <trkpt lat="48.30031901" lon="10.91861576"/>
      <trkpt lat="48.30028781" lon="10.91860298"/>
      <trkpt lat="48.3002549" lon="10.91858923"/>
      <trkpt lat="48.30022123" lon="10.91857372"/>
      <trkpt lat="48.30018994" lon="10.91856062"/>
      <trkpt lat="48.30015693" lon="10.91854921"/>
      <trkpt lat="48.30012253" lon="10.91853641"/>
      <trkpt lat="48.3000893" lon="10.91852326"/>
      <trkpt lat="48.30005025" lon="10.91850707"/>
      <trkpt lat="48.30001143" lon="10.91848975"/>
      <trkpt lat="48.29997145" lon="10.91847313"/>
      <trkpt lat="48.29993267" lon="10.91846027"/>
      <trkpt lat="48.29989328" lon="10.91845132"/>
      <trkpt lat="48.29985879" lon="10.91844223"/>
      <trkpt lat="48.29982148" lon="10.91843139"/>
      <trkpt lat="48.29976999" lon="10.91840921"/>
      <trkpt lat="48.29973135" lon="10.91840277"/>
      <trkpt lat="48.29969037" lon="10.91838245"/>
      <trkpt lat="48.29965014" lon="10.9183512"/>
      <trkpt lat="48.29960682" lon="10.91833321"/>
      <trkpt lat="48.29957396" lon="10.91831881"/>
      <trkpt lat="48.29953965" lon="10.91830053"/>
      <trkpt lat="48.29950593" lon="10.91828177"/>
      <trkpt lat="48.29946967" lon="10.91826506"/>
      <trkpt lat="48.29943198" lon="10.91824957"/>
      <trkpt lat="48.2993946" lon="10.9182328"/>
      <trkpt lat="48.29935614" lon="10.91821381"/>
      <trkpt lat="48.29932145" lon="10.91819215"/>
      <trkpt lat="48.29928939" lon="10.91817171"/>
      <trkpt lat="48.29925438" lon="10.91815216"/>
      <trkpt lat="48.29921706" lon="10.91813413"/>
      <trkpt lat="48.29917778" lon="10.91811799"/>
      <trkpt lat="48.29914183" lon="10.91810542"/>
      <trkpt lat="48.29910372" lon="10.9180878"/>
      <trkpt lat="48.29906635" lon="10.91807491"/>
      <trkpt lat="48.29903134" lon="10.9180613"/>
      <trkpt lat="48.2989966" lon="10.91804543"/>
      <trkpt lat="48.29896207" lon="10.91803431"/>
      <trkpt lat="48.29892756" lon="10.91802003"/>
      <trkpt lat="48.29889467" lon="10.91800857"/>
      <trkpt lat="48.29885996" lon="10.91799605"/>
      <trkpt lat="48.29882176" lon="10.91797924"/>
      <trkpt lat="48.29878534" lon="10.91796479"/>
      <trkpt lat="48.29874874" lon="10.91795121"/>
      <trkpt lat="48.29871326" lon="10.91793843"/>
      <trkpt lat="48.29867824" lon="10.9179263"/>
      <trkpt lat="48.2986378" lon="10.91791329"/>
      <trkpt lat="48.29860159" lon="10.91789804"/>
      <trkpt lat="48.29856718" lon="10.91788227"/>
      <trkpt lat="48.29853087" lon="10.91786815"/>
      <trkpt lat="48.29849618" lon="10.91785489"/>
      <trkpt lat="48.29845731" lon="10.9178416"/>
      <trkpt lat="48.29842197" lon="10.91782697"/>
      <trkpt lat="48.29838736" lon="10.91781611"/>
      <trkpt lat="48.29835239" lon="10.91780104"/>
      <trkpt lat="48.29831765" lon="10.91778585"/>
      <trkpt lat="48.29828163" lon="10.91777049"/>
      <trkpt lat="48.29824619" lon="10.91775162"/>
      <trkpt lat="48.29821404" lon="10.91772984"/>
      <trkpt lat="48.29817838" lon="10.9177065"/>
      <trkpt lat="48.2981408" lon="10.91768437"/>
      <trkpt lat="48.29810514" lon="10.91766647"/>
      <trkpt lat="48.29807317" lon="10.91765104"/>
      <trkpt lat="48.29803854" lon="10.91763919"/>
      <trkpt lat="48.29800395" lon="10.91763011"/>
      <trkpt lat="48.29797097" lon="10.91762094"/>
      <trkpt lat="48.29793833" lon="10.9176072"/>
      <trkpt lat="48.29790392" lon="10.91759156"/>
      <trkpt lat="48.2978705" lon="10.91757863"/>
      <trkpt lat="48.29783991" lon="10.91756677"/>
      <trkpt lat="48.2978062" lon="10.91755283"/>
      <trkpt lat="48.29777381" lon="10.91753933"/>
      <trkpt lat="48.29774236" lon="10.9175275"/>
      <trkpt lat="48.29771039" lon="10.91751533"/>
      <trkpt lat="48.29767906" lon="10.91750297"/>
      <trkpt lat="48.29764567" lon="10.91748921"/>
      <trkpt lat="48.29761301" lon="10.91747611"/>
      <trkpt lat="48.29757973" lon="10.91746359"/>
      <trkpt lat="48.29754774" lon="10.91745126"/>
      <trkpt lat="48.29751885" lon="10.91743925"/>
      <trkpt lat="48.29748831" lon="10.91742455"/>
      <trkpt lat="48.29745753" lon="10.91740941"/>
      <trkpt lat="48.29742701" lon="10.91739773"/>
      <trkpt lat="48.29739542" lon="10.91738778"/>
      <trkpt lat="48.29736692" lon="10.91737586"/>
      <trkpt lat="48.2973384" lon="10.91736093"/>
      <trkpt lat="48.2973089" lon="10.91734756"/>
      <trkpt lat="48.29727852" lon="10.9173366"/>
      <trkpt lat="48.29724576" lon="10.91732644"/>
      <trkpt lat="48.29721362" lon="10.91731736"/>
      <trkpt lat="48.29718204" lon="10.9173023"/>
      <trkpt lat="48.29715052" lon="10.91728626"/>
      <trkpt lat="48.29711764" lon="10.917273"/>
      <trkpt lat="48.29708455" lon="10.91725856"/>
      <trkpt lat="48.29705218" lon="10.91724411"/>
      <trkpt lat="48.29701946" lon="10.9172329"/>
      <trkpt lat="48.29698888" lon="10.91722019"/>
      <trkpt lat="48.29695959" lon="10.91720628"/>
      <trkpt lat="48.29693004" lon="10.9171955"/>
      <trkpt lat="48.2969014" lon="10.91718739"/>
      <trkpt lat="48.29687167" lon="10.91717608"/>
      <trkpt lat="48.29683537" lon="10.91716061"/>
      <trkpt lat="48.29680158" lon="10.9171432"/>
      <trkpt lat="48.29677064" lon="10.91712686"/>
      <trkpt lat="48.29674136" lon="10.91711132"/>
      <trkpt lat="48.29671106" lon="10.91709902"/>
      <trkpt lat="48.29668076" lon="10.91708714"/>
      <trkpt lat="48.29665176" lon="10.91707609"/>
      <trkpt lat="48.29662426" lon="10.91706513"/>
      <trkpt lat="48.29657457" lon="10.91704023"/>
      <trkpt lat="48.29654496" lon="10.91702793"/>
      <trkpt lat="48.29651476" lon="10.91701528"/>
      <trkpt lat="48.29648282" lon="10.91700409"/>
      <trkpt lat="48.29645126" lon="10.91699395"/>
      <trkpt lat="48.29641636" lon="10.91697912"/>
      <trkpt lat="48.29638512" lon="10.91696586"/>
      <trkpt lat="48.29635408" lon="10.91695347"/>
      <trkpt lat="48.29632143" lon="10.91694075"/>
      <trkpt lat="48.29629088" lon="10.91692684"/>
      <trkpt lat="48.29625883" lon="10.9169165"/>
      <trkpt lat="48.296227" lon="10.91690615"/>
      <trkpt lat="48.29619667" lon="10.91689525"/>
      <trkpt lat="48.29616561" lon="10.91688274"/>
      <trkpt lat="48.29613318" lon="10.9168703"/>
      <trkpt lat="48.29610295" lon="10.91685775"/>
      <trkpt lat="48.29607516" lon="10.91684558"/>
      <trkpt lat="48.29604727" lon="10.91683203"/>
      <trkpt lat="48.29601791" lon="10.91681675"/>
      <trkpt lat="48.29599085" lon="10.91680501"/>
      <trkpt lat="48.29596266" lon="10.91679372"/>
      <trkpt lat="48.29593338" lon="10.91678574"/>
      <trkpt lat="48.29590417" lon="10.91678155"/>
      <trkpt lat="48.29587526" lon="10.9167777"/>
      <trkpt lat="48.29584684" lon="10.91677438"/>
      <trkpt lat="48.29581896" lon="10.9167754"/>
      <trkpt lat="48.29579174" lon="10.91677921"/>
      <trkpt lat="48.29574073" lon="10.91679454"/>
      <trkpt lat="48.29571207" lon="10.91680272"/>
      <trkpt lat="48.2956839" lon="10.91681082"/>
      <trkpt lat="48.29565484" lon="10.91682231"/>
      <trkpt lat="48.29562581" lon="10.91683606"/>
      <trkpt lat="48.29559736" lon="10.91684938"/>
      <trkpt lat="48.29556934" lon="10.91686387"/>
      <trkpt lat="48.29554025" lon="10.91688097"/>
      <trkpt lat="48.29550716" lon="10.91689549"/>
      <trkpt lat="48.29547702" lon="10.9169065"/>
      <trkpt lat="48.2954504" lon="10.91691481"/>
      <trkpt lat="48.29542286" lon="10.91692791"/>
      <trkpt lat="48.29539474" lon="10.91694362"/>
      <trkpt lat="48.29536847" lon="10.91695703"/>
      <trkpt lat="48.29533291" lon="10.91697063"/>
      <trkpt lat="48.2952921" lon="10.91698959"/>
      <trkpt lat="48.29525804" lon="10.91700769"/>
      <trkpt lat="48.29522525" lon="10.91702444"/>
      <trkpt lat="48.29519142" lon="10.91703919"/>
      <trkpt lat="48.29513999" lon="10.91706316"/>
      <trkpt lat="48.29511136" lon="10.91707713"/>
      <trkpt lat="48.29508423" lon="10.9170876"/>
      <trkpt lat="48.29505348" lon="10.91709853"/>
      <trkpt lat="48.29502029" lon="10.91711106"/>
      <trkpt lat="48.29498829" lon="10.91712255"/>
      <trkpt lat="48.29495354" lon="10.91713451"/>
      <trkpt lat="48.29492155" lon="10.91714782"/>
      <trkpt lat="48.29489025" lon="10.91716106"/>
      <trkpt lat="48.29485433" lon="10.91716884"/>
      <trkpt lat="48.29481705" lon="10.91717959"/>
      <trkpt lat="48.29478413" lon="10.91718996"/>
      <trkpt lat="48.29475327" lon="10.91720371"/>
      <trkpt lat="48.29472542" lon="10.91721921"/>
      <trkpt lat="48.29469853" lon="10.91723442"/>
      <trkpt lat="48.29467084" lon="10.91724803"/>
      <trkpt lat="48.29464163" lon="10.91726438"/>
      <trkpt lat="48.29461066" lon="10.91727963"/>
      <trkpt lat="48.29458533" lon="10.91729371"/>
      <trkpt lat="48.29455693" lon="10.91731025"/>
      <trkpt lat="48.29452204" lon="10.91732247"/>
      <trkpt lat="48.29448595" lon="10.91733349"/>
      <trkpt lat="48.29445368" lon="10.91734714"/>
      <trkpt lat="48.29442132" lon="10.91736104"/>
      <trkpt lat="48.29439209" lon="10.91737184"/>
      <trkpt lat="48.29434269" lon="10.91739303"/>
      <trkpt lat="48.29429841" lon="10.91741529"/>
      <trkpt lat="48.29426901" lon="10.91742784"/>
      <trkpt lat="48.29423871" lon="10.91743868"/>
      <trkpt lat="48.29420804" lon="10.91744801"/>
      <trkpt lat="48.29417743" lon="10.91745796"/>
      <trkpt lat="48.29414535" lon="10.91746731"/>
      <trkpt lat="48.294115" lon="10.91747796"/>
      <trkpt lat="48.29408547" lon="10.91749102"/>
      <trkpt lat="48.2940563" lon="10.91750349"/>
      <trkpt lat="48.29402305" lon="10.91751577"/>
      <trkpt lat="48.29399179" lon="10.9175264"/>
      <trkpt lat="48.29396424" lon="10.91754122"/>
      <trkpt lat="48.29393316" lon="10.91755688"/>
      <trkpt lat="48.29389947" lon="10.9175737"/>
      <trkpt lat="48.29386928" lon="10.91758986"/>
      <trkpt lat="48.29383679" lon="10.91760546"/>
      <trkpt lat="48.29380275" lon="10.91761844"/>
      <trkpt lat="48.2937695" lon="10.91763278"/>
      <trkpt lat="48.29373853" lon="10.91764544"/>
      <trkpt lat="48.29370491" lon="10.91765938"/>
      <trkpt lat="48.2936734" lon="10.91767203"/>
      <trkpt lat="48.29364125" lon="10.91768459"/>
      <trkpt lat="48.29360966" lon="10.91770159"/>
      <trkpt lat="48.2935798" lon="10.91771595"/>
      <trkpt lat="48.29354681" lon="10.91772971"/>
      <trkpt lat="48.29351536" lon="10.9177432"/>
      <trkpt lat="48.29348471" lon="10.91775414"/>
      <trkpt lat="48.29343366" lon="10.91777739"/>
      <trkpt lat="48.29340489" lon="10.91778974"/>
      <trkpt lat="48.29337491" lon="10.91780292"/>
      <trkpt lat="48.29334401" lon="10.9178161"/>
      <trkpt lat="48.29331333" lon="10.91782583"/>
      <trkpt lat="48.29328" lon="10.91783355"/>
      <trkpt lat="48.29324858" lon="10.91784211"/>
      <trkpt lat="48.29321592" lon="10.91785247"/>
      <trkpt lat="48.29318504" lon="10.91786681"/>
      <trkpt lat="48.2931554" lon="10.9178813"/>
      <trkpt lat="48.29312663" lon="10.91789657"/>
      <trkpt lat="48.29309986" lon="10.91791023"/>
      <trkpt lat="48.29307172" lon="10.91792483"/>
      <trkpt lat="48.29304436" lon="10.91793997"/>
      <trkpt lat="48.29301619" lon="10.9179541"/>
      <trkpt lat="48.29298853" lon="10.91796757"/>
      <trkpt lat="48.29296055" lon="10.91798013"/>
      <trkpt lat="48.29293284" lon="10.91799263"/>
      <trkpt lat="48.29290699" lon="10.91800489"/>
      <trkpt lat="48.29288052" lon="10.91801627"/>
      <trkpt lat="48.2928534" lon="10.91802543"/>
      <trkpt lat="48.29282565" lon="10.91803648"/>
      <trkpt lat="48.29279903" lon="10.91804974"/>
      <trkpt lat="48.29277199" lon="10.9180609"/>
      <trkpt lat="48.29274378" lon="10.91807047"/>
      <trkpt lat="48.29271635" lon="10.91808252"/>
      <trkpt lat="48.29269077" lon="10.91809842"/>
      <trkpt lat="48.29266469" lon="10.91811184"/>
      <trkpt lat="48.29263767" lon="10.91812328"/>
      <trkpt lat="48.29261057" lon="10.91813616"/>
      <trkpt lat="48.29258448" lon="10.91814758"/>
      <trkpt lat="48.29255683" lon="10.91815685"/>
      <trkpt lat="48.29252801" lon="10.91816691"/>
      <trkpt lat="48.29249943" lon="10.91817841"/>
      <trkpt lat="48.292471" lon="10.91819101"/>
      <trkpt lat="48.29244368" lon="10.91820305"/>
      <trkpt lat="48.29241654" lon="10.91821272"/>
      <trkpt lat="48.29238936" lon="10.91822173"/>
      <trkpt lat="48.29236051" lon="10.91823285"/>
      <trkpt lat="48.2923315" lon="10.91824396"/>
      <trkpt lat="48.29230205" lon="10.91825572"/>
      <trkpt lat="48.29227336" lon="10.91826963"/>
      <trkpt lat="48.29224496" lon="10.9182858"/>
      <trkpt lat="48.29221615" lon="10.91830119"/>
      <trkpt lat="48.29218745" lon="10.91831714"/>
      <trkpt lat="48.29215914" lon="10.91833272"/>
      <trkpt lat="48.29213022" lon="10.91834417"/>
      <trkpt lat="48.29210242" lon="10.91835316"/>
      <trkpt lat="48.2920749" lon="10.91836556"/>
      <trkpt lat="48.29204855" lon="10.91837972"/>
      <trkpt lat="48.29202298" lon="10.91839274"/>
      <trkpt lat="48.29199665" lon="10.9184041"/>
      <trkpt lat="48.29197013" lon="10.91841559"/>
      <trkpt lat="48.29194158" lon="10.91842532"/>
      <trkpt lat="48.2919106" lon="10.91843747"/>
      <trkpt lat="48.29187801" lon="10.91845202"/>
      <trkpt lat="48.29184583" lon="10.9184667"/>
      <trkpt lat="48.29181365" lon="10.91848181"/>
      <trkpt lat="48.29178025" lon="10.9184969"/>
      <trkpt lat="48.29174857" lon="10.91851296"/>
      <trkpt lat="48.29171844" lon="10.91852679"/>
      <trkpt lat="48.29168761" lon="10.91853774"/>
      <trkpt lat="48.29166062" lon="10.91854749"/>
      <trkpt lat="48.29163296" lon="10.91856066"/>
      <trkpt lat="48.2915809" lon="10.9185766"/>
      <trkpt lat="48.29155432" lon="10.91858537"/>
      <trkpt lat="48.291526" lon="10.91859598"/>
      <trkpt lat="48.29147685" lon="10.91861548"/>
      <trkpt lat="48.29144912" lon="10.91862879"/>
      <trkpt lat="48.29142203" lon="10.91863984"/>
      <trkpt lat="48.2913887" lon="10.91865068"/>
      <trkpt lat="48.29135844" lon="10.91865901"/>
      <trkpt lat="48.29130623" lon="10.91867662"/>
      <trkpt lat="48.29127456" lon="10.91868686"/>
      <trkpt lat="48.29124022" lon="10.91869897"/>
      <trkpt lat="48.29120709" lon="10.91871063"/>
      <trkpt lat="48.29117469" lon="10.91872059"/>
      <trkpt lat="48.29114199" lon="10.91873417"/>
      <trkpt lat="48.29111142" lon="10.91874911"/>
      <trkpt lat="48.29108054" lon="10.91876234"/>
      <trkpt lat="48.29104912" lon="10.91877664"/>
      <trkpt lat="48.29101653" lon="10.91879195"/>
      <trkpt lat="48.29098336" lon="10.91880975"/>
      <trkpt lat="48.2909544" lon="10.91882475"/>
      <trkpt lat="48.29092479" lon="10.91883575"/>
      <trkpt lat="48.29089312" lon="10.91884571"/>
      <trkpt lat="48.29086345" lon="10.9188559"/>
      <trkpt lat="48.29083065" lon="10.91887257"/>
      <trkpt lat="48.29079841" lon="10.91888891"/>
      <trkpt lat="48.29076849" lon="10.91890041"/>
      <trkpt lat="48.29073663" lon="10.91891045"/>
      <trkpt lat="48.29070352" lon="10.91892199"/>
      <trkpt lat="48.29066933" lon="10.91893581"/>
      <trkpt lat="48.29063578" lon="10.91894763"/>
      <trkpt lat="48.29060469" lon="10.91895792"/>
      <trkpt lat="48.29057322" lon="10.91897166"/>
      <trkpt lat="48.2905428" lon="10.91898461"/>
      <trkpt lat="48.29051163" lon="10.91899486"/>
      <trkpt lat="48.29048039" lon="10.919005"/>
      <trkpt lat="48.29044404" lon="10.91901962"/>
      <trkpt lat="48.29040751" lon="10.91903464"/>
      <trkpt lat="48.29036845" lon="10.91904972"/>
      <trkpt lat="48.29033051" lon="10.91906369"/>
      <trkpt lat="48.29029316" lon="10.91907712"/>
      <trkpt lat="48.29025664" lon="10.91908982"/>
      <trkpt lat="48.29021775" lon="10.91910096"/>
      <trkpt lat="48.29017664" lon="10.91911499"/>
      <trkpt lat="48.29013527" lon="10.9191322"/>
      <trkpt lat="48.29009596" lon="10.91915068"/>
      <trkpt lat="48.29005944" lon="10.91917264"/>
      <trkpt lat="48.29002282" lon="10.91919059"/>
      <trkpt lat="48.28998858" lon="10.91920541"/>
      <trkpt lat="48.28995461" lon="10.9192201"/>
      <trkpt lat="48.28992195" lon="10.91923436"/>
      <trkpt lat="48.2898866" lon="10.91924925"/>
      <trkpt lat="48.28985011" lon="10.91926283"/>
      <trkpt lat="48.28981359" lon="10.91927734"/>
      <trkpt lat="48.28977569" lon="10.91929694"/>
      <trkpt lat="48.28973908" lon="10.91931714"/>
      <trkpt lat="48.28970555" lon="10.91933574"/>
      <trkpt lat="48.28967252" lon="10.9193524"/>
      <trkpt lat="48.28964244" lon="10.91936796"/>
      <trkpt lat="48.28961249" lon="10.91938595"/>
      <trkpt lat="48.28958369" lon="10.91940546"/>
      <trkpt lat="48.28955459" lon="10.91942195"/>
      <trkpt lat="48.28952682" lon="10.91943777"/>
      <trkpt lat="48.28948593" lon="10.91946643"/>
      <trkpt lat="48.28944312" lon="10.91949992"/>
      <trkpt lat="48.28941243" lon="10.91951731"/>
      <trkpt lat="48.289384" lon="10.91953534"/>
      <trkpt lat="48.28935666" lon="10.91955362"/>
      <trkpt lat="48.28932868" lon="10.91957149"/>
      <trkpt lat="48.28930232" lon="10.91958566"/>
      <trkpt lat="48.28925584" lon="10.91961041"/>
      <trkpt lat="48.28920731" lon="10.91962618"/>
      <trkpt lat="48.28915401" lon="10.91964884"/>
      <trkpt lat="48.28909989" lon="10.91965975"/>
      <trkpt lat="48.2890706" lon="10.91966685"/>
      <trkpt lat="48.28903993" lon="10.91966774"/>
      <trkpt lat="48.28900919" lon="10.91966685"/>
      <trkpt lat="48.2889784" lon="10.91966336"/>
      <trkpt lat="48.28894725" lon="10.91965896"/>
      <trkpt lat="48.288919" lon="10.9196623"/>
      <trkpt lat="48.288918" lon="10.91965896"/>
      <trkpt lat="48.28886213" lon="10.91964936"/>
      <trkpt lat="48.28883454" lon="10.91964343"/>
      <trkpt lat="48.28880485" lon="10.91963569"/>
      <trkpt lat="48.28877426" lon="10.9196291"/>
      <trkpt lat="48.28874328" lon="10.91962351"/>
      <trkpt lat="48.2887373" lon="10.9196178"/>
      <trkpt lat="48.28871368" lon="10.91961755"/>
      <trkpt lat="48.28868402" lon="10.91961462"/>
      <trkpt lat="48.28865206" lon="10.91961516"/>
      <trkpt lat="48.28861715" lon="10.91961692"/>
      <trkpt lat="48.28858387" lon="10.91961653"/>
      <trkpt lat="48.28855093" lon="10.91961435"/>
      <trkpt lat="48.2885197" lon="10.91961386"/>
      <trkpt lat="48.28849056" lon="10.91961249"/>
      <trkpt lat="48.28845967" lon="10.91961466"/>
      <trkpt lat="48.28842895" lon="10.91961918"/>
      <trkpt lat="48.2884006" lon="10.91962447"/>
      <trkpt lat="48.28836985" lon="10.91962903"/>
      <trkpt lat="48.28833808" lon="10.91963566"/>
      <trkpt lat="48.28830838" lon="10.91964822"/>
      <trkpt lat="48.28828052" lon="10.91965993"/>
      <trkpt lat="48.28825152" lon="10.91967216"/>
      <trkpt lat="48.28822392" lon="10.91968644"/>
      <trkpt lat="48.28819414" lon="10.91970403"/>
      <trkpt lat="48.28816436" lon="10.91972359"/>
      <trkpt lat="48.28813657" lon="10.91974119"/>
      <trkpt lat="48.2881077" lon="10.91975746"/>
      <trkpt lat="48.28807778" lon="10.91977503"/>
      <trkpt lat="48.28804922" lon="10.91979478"/>
      <trkpt lat="48.28802568" lon="10.91981778"/>
      <trkpt lat="48.28797739" lon="10.91986102"/>
      <trkpt lat="48.28795014" lon="10.91988565"/>
      <trkpt lat="48.28792383" lon="10.91991375"/>
      <trkpt lat="48.28789682" lon="10.91994397"/>
      <trkpt lat="48.28786733" lon="10.91997205"/>
      <trkpt lat="48.28783668" lon="10.91999825"/>
      <trkpt lat="48.28780474" lon="10.92002789"/>
      <trkpt lat="48.28777701" lon="10.9200571"/>
      <trkpt lat="48.28774984" lon="10.92008329"/>
      <trkpt lat="48.28772392" lon="10.92010792"/>
      <trkpt lat="48.28769964" lon="10.92012967"/>
      <trkpt lat="48.28767051" lon="10.92015156"/>
      <trkpt lat="48.28763828" lon="10.92017937"/>
      <trkpt lat="48.28760925" lon="10.92020592"/>
      <trkpt lat="48.28758078" lon="10.92022746"/>
      <trkpt lat="48.28755148" lon="10.92024645"/>
      <trkpt lat="48.28752164" lon="10.92026789"/>
      <trkpt lat="48.28748885" lon="10.92028839"/>
      <trkpt lat="48.28745509" lon="10.92030494"/>
      <trkpt lat="48.28742246" lon="10.92032302"/>
      <trkpt lat="48.28738841" lon="10.92034158"/>
      <trkpt lat="48.28735505" lon="10.92035714"/>
      <trkpt lat="48.28732185" lon="10.92037023"/>
      <trkpt lat="48.28728587" lon="10.92038422"/>
      <trkpt lat="48.28725383" lon="10.92039813"/>
      <trkpt lat="48.28722507" lon="10.92041476"/>
      <trkpt lat="48.28719401" lon="10.92043156"/>
      <trkpt lat="48.28716183" lon="10.92044339"/>
      <trkpt lat="48.28712888" lon="10.92045771"/>
      <trkpt lat="48.28709779" lon="10.92047473"/>
      <trkpt lat="48.28706756" lon="10.92048916"/>
      <trkpt lat="48.28703435" lon="10.92050064"/>
      <trkpt lat="48.28700097" lon="10.92051303"/>
      <trkpt lat="48.28697022" lon="10.92052512"/>
      <trkpt lat="48.28694087" lon="10.92053808"/>
      <trkpt lat="48.28690912" lon="10.92055002"/>
      <trkpt lat="48.28687512" lon="10.92056114"/>
      <trkpt lat="48.28684119" lon="10.92057297"/>
      <trkpt lat="48.28680448" lon="10.92058624"/>
      <trkpt lat="48.28676815" lon="10.92060241"/>
      <trkpt lat="48.28673293" lon="10.92062125"/>
      <trkpt lat="48.28669702" lon="10.92063668"/>
      <trkpt lat="48.2866625" lon="10.92065103"/>
      <trkpt lat="48.2866287" lon="10.92066536"/>
      <trkpt lat="48.28659869" lon="10.92067828"/>
      <trkpt lat="48.28656782" lon="10.92069055"/>
      <trkpt lat="48.28653661" lon="10.92070215"/>
      <trkpt lat="48.28650538" lon="10.92071475"/>
      <trkpt lat="48.28647588" lon="10.92072676"/>
      <trkpt lat="48.28644795" lon="10.92074326"/>
      <trkpt lat="48.28642198" lon="10.92075941"/>
      <trkpt lat="48.28639378" lon="10.92077422"/>
      <trkpt lat="48.28636501" lon="10.92078974"/>
      <trkpt lat="48.28633443" lon="10.92080629"/>
      <trkpt lat="48.28630492" lon="10.92082155"/>
      <trkpt lat="48.28627606" lon="10.92083675"/>
      <trkpt lat="48.28624555" lon="10.92084798"/>
      <trkpt lat="48.28621634" lon="10.92085928"/>
      <trkpt lat="48.28618867" lon="10.92087439"/>
      <trkpt lat="48.2861584" lon="10.92088688"/>
      <trkpt lat="48.28612573" lon="10.92090153"/>
      <trkpt lat="48.28609294" lon="10.92091544"/>
      <trkpt lat="48.28605984" lon="10.9209259"/>
      <trkpt lat="48.28602977" lon="10.92093839"/>
      <trkpt lat="48.28599914" lon="10.92095407"/>
      <trkpt lat="48.28596725" lon="10.92097449"/>
      <trkpt lat="48.28593246" lon="10.92099152"/>
      <trkpt lat="48.28589622" lon="10.92100555"/>
      <trkpt lat="48.28586082" lon="10.92101855"/>
      <trkpt lat="48.28582858" lon="10.9210316"/>
      <trkpt lat="48.28579946" lon="10.92104311"/>
      <trkpt lat="48.28574358" lon="10.92106894"/>
      <trkpt lat="48.28571716" lon="10.92108443"/>
      <trkpt lat="48.28568692" lon="10.92109864"/>
      <trkpt lat="48.28565411" lon="10.92111005"/>
      <trkpt lat="48.28561954" lon="10.92112164"/>
      <trkpt lat="48.28559153" lon="10.92113467"/>
      <trkpt lat="48.28556503" lon="10.92114788"/>
      <trkpt lat="48.28553319" lon="10.92115994"/>
      <trkpt lat="48.28549859" lon="10.92117873"/>
      <trkpt lat="48.28546585" lon="10.92119605"/>
      <trkpt lat="48.28543187" lon="10.92121062"/>
      <trkpt lat="48.28539947" lon="10.92122242"/>
      <trkpt lat="48.28536769" lon="10.92123556"/>
      <trkpt lat="48.28533339" lon="10.92124881"/>
      <trkpt lat="48.28529791" lon="10.92126211"/>
      <trkpt lat="48.28526096" lon="10.92127837"/>
      <trkpt lat="48.28522508" lon="10.92129463"/>
      <trkpt lat="48.28519039" lon="10.92131251"/>
      <trkpt lat="48.28515786" lon="10.92132944"/>
      <trkpt lat="48.28512066" lon="10.92134776"/>
      <trkpt lat="48.28508347" lon="10.92136653"/>
      <trkpt lat="48.28504646" lon="10.92138064"/>
      <trkpt lat="48.28501108" lon="10.92139189"/>
      <trkpt lat="48.28497704" lon="10.92140271"/>
      <trkpt lat="48.28494444" lon="10.9214147"/>
      <trkpt lat="48.28491169" lon="10.92142627"/>
      <trkpt lat="48.28488383" lon="10.92143739"/>
      <trkpt lat="48.28485316" lon="10.92144979"/>
      <trkpt lat="48.28482403" lon="10.92146289"/>
      <trkpt lat="48.28479591" lon="10.92147724"/>
      <trkpt lat="48.2847664" lon="10.92149298"/>
      <trkpt lat="48.28473596" lon="10.92150552"/>
      <trkpt lat="48.28470276" lon="10.92151822"/>
      <trkpt lat="48.28466979" lon="10.92152993"/>
      <trkpt lat="48.28464142" lon="10.92154148"/>
      <trkpt lat="48.28461017" lon="10.92155769"/>
      <trkpt lat="48.28457626" lon="10.92157349"/>
      <trkpt lat="48.28454484" lon="10.92158513"/>
      <trkpt lat="48.28451568" lon="10.92159494"/>
      <trkpt lat="48.28448782" lon="10.92160563"/>
      <trkpt lat="48.28445647" lon="10.92161587"/>
      <trkpt lat="48.28442731" lon="10.92163072"/>
      <trkpt lat="48.28439839" lon="10.92164774"/>
      <trkpt lat="48.2843645" lon="10.92166266"/>
      <trkpt lat="48.28433235" lon="10.92167753"/>
      <trkpt lat="48.28427658" lon="10.92170182"/>
      <trkpt lat="48.28424367" lon="10.92171523"/>
      <trkpt lat="48.28421424" lon="10.92172866"/>
      <trkpt lat="48.28418584" lon="10.92174225"/>
      <trkpt lat="48.28415408" lon="10.92175498"/>
      <trkpt lat="48.28411972" lon="10.92176892"/>
      <trkpt lat="48.28408773" lon="10.92178363"/>
      <trkpt lat="48.28405428" lon="10.9217974"/>
      <trkpt lat="48.28402" lon="10.92181451"/>
      <trkpt lat="48.28398645" lon="10.92182923"/>
      <trkpt lat="48.2839595" lon="10.92184242"/>
      <trkpt lat="48.28392852" lon="10.92185954"/>
      <trkpt lat="48.28389785" lon="10.92187308"/>
      <trkpt lat="48.28386984" lon="10.9218819"/>
      <trkpt lat="48.28383954" lon="10.92189465"/>
      <trkpt lat="48.28380669" lon="10.92190666"/>
      <trkpt lat="48.28377628" lon="10.9219185"/>
      <trkpt lat="48.28374786" lon="10.92193188"/>
      <trkpt lat="48.2837173" lon="10.92194678"/>
      <trkpt lat="48.28368638" lon="10.92195733"/>
      <trkpt lat="48.2836554" lon="10.9219687"/>
      <trkpt lat="48.28362552" lon="10.9219857"/>
      <trkpt lat="48.28359388" lon="10.92200131"/>
      <trkpt lat="48.28356737" lon="10.922012"/>
      <trkpt lat="48.28353792" lon="10.92202613"/>
      <trkpt lat="48.28350578" lon="10.92204042"/>
      <trkpt lat="48.28347436" lon="10.92205522"/>
      <trkpt lat="48.28344122" lon="10.92207043"/>
      <trkpt lat="48.28341217" lon="10.9220815"/>
      <trkpt lat="48.28338584" lon="10.92209228"/>
      <trkpt lat="48.28335585" lon="10.92210633"/>
      <trkpt lat="48.28332882" lon="10.92211765"/>
      <trkpt lat="48.28330136" lon="10.92213025"/>
      <trkpt lat="48.28327367" lon="10.9221466"/>
      <trkpt lat="48.28324228" lon="10.92216258"/>
      <trkpt lat="48.28321051" lon="10.92217873"/>
      <trkpt lat="48.28318097" lon="10.92219228"/>
      <trkpt lat="48.2831479" lon="10.92220322"/>
      <trkpt lat="48.28311229" lon="10.92221522"/>
      <trkpt lat="48.28307845" lon="10.92222535"/>
      <trkpt lat="48.28304303" lon="10.92223842"/>
      <trkpt lat="48.28300691" lon="10.92225429"/>
      <trkpt lat="48.28297475" lon="10.92226709"/>
      <trkpt lat="48.28294345" lon="10.92227857"/>
      <trkpt lat="48.28291038" lon="10.92229121"/>
      <trkpt lat="48.28287738" lon="10.92230407"/>
      <trkpt lat="48.2828462" lon="10.92231754"/>
      <trkpt lat="48.28281652" lon="10.9223318"/>
      <trkpt lat="48.28278458" lon="10.9223458"/>
      <trkpt lat="48.28275163" lon="10.92235905"/>
      <trkpt lat="48.28272049" lon="10.92237281"/>
      <trkpt lat="48.28268681" lon="10.92238394"/>
      <trkpt lat="48.28265692" lon="10.92239785"/>
      <trkpt lat="48.28262788" lon="10.92241456"/>
      <trkpt lat="48.28259949" lon="10.92242712"/>
      <trkpt lat="48.28257184" lon="10.92243439"/>
      <trkpt lat="48.2825444" lon="10.92244082"/>
      <trkpt lat="48.28251509" lon="10.92244863"/>
      <trkpt lat="48.28248629" lon="10.92245707"/>
      <trkpt lat="48.28243218" lon="10.92248003"/>
      <trkpt lat="48.28240186" lon="10.92249295"/>
      <trkpt lat="48.2823426" lon="10.92250663"/>
      <trkpt lat="48.28231161" lon="10.92251517"/>
      <trkpt lat="48.28225916" lon="10.9225324"/>
      <trkpt lat="48.2822107" lon="10.92253555"/>
      <trkpt lat="48.28216833" lon="10.92252635"/>
      <trkpt lat="48.28214068" lon="10.92255036"/>
      <trkpt lat="48.28213618" lon="10.92260284"/>
      <trkpt lat="48.28214844" lon="10.92264364"/>
      <trkpt lat="48.28216043" lon="10.92269402"/>
      <trkpt lat="48.28218953" lon="10.92275157"/>
      <trkpt lat="48.2822319" lon="10.922806"/>
      <trkpt lat="48.28225185" lon="10.92284369"/>
      <trkpt lat="48.28226952" lon="10.92288226"/>
      <trkpt lat="48.28229219" lon="10.9229214"/>
      <trkpt lat="48.28231631" lon="10.92296193"/>
      <trkpt lat="48.28233918" lon="10.92300301"/>
      <trkpt lat="48.28236193" lon="10.923048"/>
      <trkpt lat="48.28238384" lon="10.92309635"/>
      <trkpt lat="48.28240534" lon="10.92314618"/>
      <trkpt lat="48.28242702" lon="10.92319441"/>
      <trkpt lat="48.28244775" lon="10.92323782"/>
      <trkpt lat="48.28246918" lon="10.9232738"/>
      <trkpt lat="48.2824918" lon="10.92331213"/>
      <trkpt lat="48.28251859" lon="10.92335117"/>
      <trkpt lat="48.28254486" lon="10.9233893"/>
      <trkpt lat="48.28257005" lon="10.92342458"/>
      <trkpt lat="48.28259349" lon="10.92345432"/>
      <trkpt lat="48.28261858" lon="10.92348781"/>
      <trkpt lat="48.28264546" lon="10.92351911"/>
      <trkpt lat="48.28266928" lon="10.92355356"/>
      <trkpt lat="48.28269565" lon="10.92358605"/>
      <trkpt lat="48.28272322" lon="10.92361806"/>
      <trkpt lat="48.28275264" lon="10.92364806"/>
      <trkpt lat="48.282782" lon="10.92367412"/>
      <trkpt lat="48.2828102" lon="10.92370319"/>
      <trkpt lat="48.28283756" lon="10.92373658"/>
      <trkpt lat="48.28286262" lon="10.92377235"/>
      <trkpt lat="48.28289094" lon="10.92380858"/>
      <trkpt lat="48.28291835" lon="10.92383955"/>
      <trkpt lat="48.28294834" lon="10.92386525"/>
      <trkpt lat="48.28298143" lon="10.92389259"/>
      <trkpt lat="48.28301077" lon="10.92392127"/>
      <trkpt lat="48.28303911" lon="10.92394933"/>
      <trkpt lat="48.283066" lon="10.92397883"/>
      <trkpt lat="48.2830919" lon="10.92400794"/>
      <trkpt lat="48.28312029" lon="10.92403804"/>
      <trkpt lat="48.28315265" lon="10.92406512"/>
      <trkpt lat="48.28318837" lon="10.92409129"/>
      <trkpt lat="48.28322617" lon="10.92411789"/>
      <trkpt lat="48.28326532" lon="10.92414356"/>
      <trkpt lat="48.28330662" lon="10.92416864"/>
      <trkpt lat="48.2833465" lon="10.92419442"/>
      <trkpt lat="48.28339078" lon="10.92421819"/>
      <trkpt lat="48.28342912" lon="10.92424385"/>
      <trkpt lat="48.28347237" lon="10.9242743"/>
      <trkpt lat="48.28351295" lon="10.92429845"/>
      <trkpt lat="48.28355234" lon="10.92432256"/>
      <trkpt lat="48.28359465" lon="10.92435193"/>
      <trkpt lat="48.28363704" lon="10.92438205"/>
      <trkpt lat="48.28368551" lon="10.9244138"/>
      <trkpt lat="48.28372694" lon="10.92444311"/>
      <trkpt lat="48.28377016" lon="10.92446634"/>
      <trkpt lat="48.28381694" lon="10.92449668"/>
      <trkpt lat="48.28385955" lon="10.92451891"/>
      <trkpt lat="48.28389868" lon="10.92454886"/>
      <trkpt lat="48.28394252" lon="10.92457727"/>
      <trkpt lat="48.28398096" lon="10.92459978"/>
      <trkpt lat="48.2840217" lon="10.9246227"/>
      <trkpt lat="48.28406224" lon="10.92464718"/>
      <trkpt lat="48.2841021" lon="10.924668"/>
      <trkpt lat="48.28414134" lon="10.92468913"/>
      <trkpt lat="48.28418534" lon="10.9247108"/>
      <trkpt lat="48.28423437" lon="10.92472432"/>
      <trkpt lat="48.28427459" lon="10.92473932"/>
      <trkpt lat="48.28431266" lon="10.92476426"/>
      <trkpt lat="48.2843526" lon="10.92479497"/>
      <trkpt lat="48.28438455" lon="10.9248124"/>
      <trkpt lat="48.28442405" lon="10.92483441"/>
      <trkpt lat="48.28447008" lon="10.92485156"/>
      <trkpt lat="48.28451143" lon="10.92486275"/>
      <trkpt lat="48.28455085" lon="10.92487412"/>
      <trkpt lat="48.28459102" lon="10.92488576"/>
      <trkpt lat="48.2846308" lon="10.92489186"/>
      <trkpt lat="48.28466512" lon="10.92490035"/>
      <trkpt lat="48.28470261" lon="10.92490994"/>
      <trkpt lat="48.28473877" lon="10.9249172"/>
      <trkpt lat="48.28478129" lon="10.92491939"/>
      <trkpt lat="48.28482469" lon="10.924924"/>
      <trkpt lat="48.28486716" lon="10.92493164"/>
      <trkpt lat="48.28490612" lon="10.92493593"/>
      <trkpt lat="48.284943" lon="10.92494434"/>
      <trkpt lat="48.2849805" lon="10.92495413"/>
      <trkpt lat="48.28501534" lon="10.92496156"/>
      <trkpt lat="48.28504994" lon="10.92496378"/>
      <trkpt lat="48.28508809" lon="10.92496452"/>
      <trkpt lat="48.28512524" lon="10.92496383"/>
      <trkpt lat="48.28515976" lon="10.92496326"/>
      <trkpt lat="48.28519578" lon="10.92496671"/>
      <trkpt lat="48.28523181" lon="10.92497633"/>
      <trkpt lat="48.28526692" lon="10.92499584"/>
      <trkpt lat="48.28529516" lon="10.92503099"/>
      <trkpt lat="48.28531498" lon="10.92507182"/>
      <trkpt lat="48.28532431" lon="10.92512058"/>
      <trkpt lat="48.2853238" lon="10.9251767"/>
      <trkpt lat="48.28532092" lon="10.9252339"/>
      <trkpt lat="48.28532184" lon="10.92528711"/>
      <trkpt lat="48.28531749" lon="10.92534574"/>
      <trkpt lat="48.28531266" lon="10.92540129"/>
      <trkpt lat="48.28531106" lon="10.92545696"/>
      <trkpt lat="48.28531238" lon="10.92551364"/>
      <trkpt lat="48.28531252" lon="10.92556808"/>
      <trkpt lat="48.28531224" lon="10.92562419"/>
      <trkpt lat="48.28531089" lon="10.92568187"/>
      <trkpt lat="48.28530421" lon="10.92572965"/>
      <trkpt lat="48.28530151" lon="10.92577626"/>
      <trkpt lat="48.28530527" lon="10.92582499"/>
      <trkpt lat="48.28530635" lon="10.92587112"/>
      <trkpt lat="48.28530533" lon="10.9259215"/>
      <trkpt lat="48.28530146" lon="10.92597558"/>
      <trkpt lat="48.28529981" lon="10.92602843"/>
      <trkpt lat="48.28529936" lon="10.92608309"/>
      <trkpt lat="48.28529942" lon="10.92613806"/>
      <trkpt lat="48.28529963" lon="10.92619446"/>
      <trkpt lat="48.28529919" lon="10.92624775"/>
      <trkpt lat="48.28529943" lon="10.92629541"/>
      <trkpt lat="48.28529978" lon="10.92634066"/>
      <trkpt lat="48.28529968" lon="10.92638495"/>
      <trkpt lat="48.28529771" lon="10.92643668"/>
      <trkpt lat="48.28529744" lon="10.92648647"/>
      <trkpt lat="48.2853001" lon="10.92653871"/>
      <trkpt lat="48.28530229" lon="10.92659295"/>
      <trkpt lat="48.28530353" lon="10.92664618"/>
      <trkpt lat="48.28530396" lon="10.92670377"/>
      <trkpt lat="48.28530408" lon="10.92676141"/>
      <trkpt lat="48.28530711" lon="10.92682295"/>
      <trkpt lat="48.28530833" lon="10.9268814"/>
      <trkpt lat="48.28531034" lon="10.92694024"/>
      <trkpt lat="48.28531183" lon="10.9270022"/>
      <trkpt lat="48.28531343" lon="10.92705918"/>
      <trkpt lat="48.28531715" lon="10.92710952"/>
      <trkpt lat="48.28532345" lon="10.9271551"/>
      <trkpt lat="48.28534151" lon="10.92719678"/>
      <trkpt lat="48.28536866" lon="10.92722699"/>
      <trkpt lat="48.28540633" lon="10.92724528"/>
      <trkpt lat="48.28544586" lon="10.92724803"/>
      <trkpt lat="48.28548504" lon="10.92724852"/>
      <trkpt lat="48.2855242" lon="10.9272462"/>
      <trkpt lat="48.28555261" lon="10.92724489"/>
      <trkpt lat="48.28558018" lon="10.9272476"/>
      <trkpt lat="48.28561228" lon="10.92725434"/>
      <trkpt lat="48.28564445" lon="10.9272623"/>
      <trkpt lat="48.28567377" lon="10.92726781"/>
      <trkpt lat="48.28572273" lon="10.92728238"/>
      <trkpt lat="48.28574967" lon="10.92728866"/>
      <trkpt lat="48.28579905" lon="10.92729007"/>
      <trkpt lat="48.28584813" lon="10.92728636"/>
      <trkpt lat="48.28589683" lon="10.92728226"/>
      <trkpt lat="48.28594481" lon="10.92727314"/>
      <trkpt lat="48.28599078" lon="10.92727566"/>
      <trkpt lat="48.28603944" lon="10.92728004"/>
      <trkpt lat="48.28609383" lon="10.92728185"/>
      <trkpt lat="48.28612321" lon="10.92728006"/>
      <trkpt lat="48.28615385" lon="10.92728053"/>
      <trkpt lat="48.28618178" lon="10.92728456"/>
      <trkpt lat="48.28623657" lon="10.92728975"/>
      <trkpt lat="48.28626896" lon="10.92728919"/>
      <trkpt lat="48.28629815" lon="10.92729048"/>
      <trkpt lat="48.28632794" lon="10.92729444"/>
      <trkpt lat="48.28635529" lon="10.92730214"/>
      <trkpt lat="48.28638905" lon="10.92730618"/>
      <trkpt lat="48.28642224" lon="10.92730818"/>
      <trkpt lat="48.28645334" lon="10.92730794"/>
      <trkpt lat="48.28648599" lon="10.92730893"/>
      <trkpt lat="48.28651721" lon="10.92731547"/>
      <trkpt lat="48.28654644" lon="10.92732118"/>
      <trkpt lat="48.28659309" lon="10.9273312"/>
      <trkpt lat="48.2866215" lon="10.92732963"/>
      <trkpt lat="48.28665301" lon="10.92732727"/>
      <trkpt lat="48.28668805" lon="10.92732668"/>
      <trkpt lat="48.28671775" lon="10.92732796"/>
      <trkpt lat="48.28674956" lon="10.9273319"/>
      <trkpt lat="48.2867826" lon="10.92733754"/>
      <trkpt lat="48.28681447" lon="10.92734164"/>
      <trkpt lat="48.28684373" lon="10.92734676"/>
      <trkpt lat="48.28687282" lon="10.92734921"/>
      <trkpt lat="48.28690545" lon="10.92734715"/>
      <trkpt lat="48.28693872" lon="10.92734617"/>
      <trkpt lat="48.28697156" lon="10.92734512"/>
      <trkpt lat="48.28700336" lon="10.92734779"/>
      <trkpt lat="48.28703612" lon="10.92735407"/>
      <trkpt lat="48.28707041" lon="10.92735848"/>
      <trkpt lat="48.28710462" lon="10.92736072"/>
      <trkpt lat="48.28713672" lon="10.92735986"/>
      <trkpt lat="48.28717043" lon="10.92735565"/>
      <trkpt lat="48.28720853" lon="10.92735345"/>
      <trkpt lat="48.28724546" lon="10.92735579"/>
      <trkpt lat="48.28728191" lon="10.92735839"/>
      <trkpt lat="48.28731722" lon="10.92735904"/>
      <trkpt lat="48.28735471" lon="10.92735904"/>
      <trkpt lat="48.28739106" lon="10.92735733"/>
      <trkpt lat="48.28742815" lon="10.92735781"/>
      <trkpt lat="48.28746773" lon="10.92735857"/>
      <trkpt lat="48.28750358" lon="10.92735966"/>
      <trkpt lat="48.28753742" lon="10.92736058"/>
      <trkpt lat="48.28757569" lon="10.92735864"/>
      <trkpt lat="48.28761459" lon="10.92735613"/>
      <trkpt lat="48.28765159" lon="10.92735391"/>
      <trkpt lat="48.28769272" lon="10.92735374"/>
      <trkpt lat="48.2877362" lon="10.92735557"/>
      <trkpt lat="48.28777672" lon="10.92735556"/>
      <trkpt lat="48.28781267" lon="10.92735693"/>
      <trkpt lat="48.28784666" lon="10.92735899"/>
      <trkpt lat="48.28788347" lon="10.92736019"/>
      <trkpt lat="48.28791878" lon="10.92736319"/>
      <trkpt lat="48.28795158" lon="10.92736314"/>
      <trkpt lat="48.28798577" lon="10.92736191"/>
      <trkpt lat="48.28801853" lon="10.92736495"/>
      <trkpt lat="48.28805518" lon="10.92736669"/>
      <trkpt lat="48.28809415" lon="10.92736539"/>
      <trkpt lat="48.28813094" lon="10.92736601"/>
      <trkpt lat="48.28816603" lon="10.92736937"/>
      <trkpt lat="48.28819893" lon="10.92737262"/>
      <trkpt lat="48.28823094" lon="10.92737396"/>
      <trkpt lat="48.28826404" lon="10.92737011"/>
      <trkpt lat="48.28829834" lon="10.92736776"/>
      <trkpt lat="48.28833255" lon="10.92736805"/>
      <trkpt lat="48.28836637" lon="10.92736829"/>
      <trkpt lat="48.28839896" lon="10.92736647"/>
      <trkpt lat="48.28843556" lon="10.92736469"/>
      <trkpt lat="48.28847212" lon="10.92736606"/>
      <trkpt lat="48.28850677" lon="10.92736787"/>
      <trkpt lat="48.28853961" lon="10.92736663"/>
      <trkpt lat="48.28856867" lon="10.92736595"/>
      <trkpt lat="48.28860317" lon="10.92736519"/>
      <trkpt lat="48.28863948" lon="10.92736379"/>
      <trkpt lat="48.28867" lon="10.92736347"/>
      <trkpt lat="48.28869966" lon="10.92736189"/>
      <trkpt lat="48.28875193" lon="10.92736699"/>
      <trkpt lat="48.28879986" lon="10.92737846"/>
      <trkpt lat="48.28884963" lon="10.92738017"/>
      <trkpt lat="48.2888784" lon="10.92737954"/>
      <trkpt lat="48.28892678" lon="10.92737946"/>
      <trkpt lat="48.28897575" lon="10.92737659"/>
      <trkpt lat="48.2890266" lon="10.9273776"/>
      <trkpt lat="48.28905519" lon="10.92737878"/>
      <trkpt lat="48.28908523" lon="10.9273794"/>
      <trkpt lat="48.28911542" lon="10.92737702"/>
      <trkpt lat="48.28914747" lon="10.92737328"/>
      <trkpt lat="48.28917897" lon="10.92737015"/>
      <trkpt lat="48.28921033" lon="10.9273691"/>
      <trkpt lat="48.28923879" lon="10.9273712"/>
      <trkpt lat="48.28926934" lon="10.92737513"/>
      <trkpt lat="48.28929791" lon="10.92737545"/>
      <trkpt lat="48.28932545" lon="10.92737133"/>
      <trkpt lat="48.28935602" lon="10.92736978"/>
      <trkpt lat="48.28938811" lon="10.92736886"/>
      <trkpt lat="48.28942039" lon="10.92736328"/>
      <trkpt lat="48.28945378" lon="10.92735867"/>
      <trkpt lat="48.289491" lon="10.9273597"/>
      <trkpt lat="48.28952837" lon="10.92736039"/>
      <trkpt lat="48.28956254" lon="10.92735978"/>
      <trkpt lat="48.28959631" lon="10.92736063"/>
      <trkpt lat="48.28963153" lon="10.92735793"/>
      <trkpt lat="48.28966499" lon="10.92735817"/>
      <trkpt lat="48.28969745" lon="10.92736097"/>
      <trkpt lat="48.28973077" lon="10.92736326"/>
      <trkpt lat="48.28976387" lon="10.92736867"/>
      <trkpt lat="48.28979557" lon="10.92736883"/>
      <trkpt lat="48.28982627" lon="10.92736607"/>
      <trkpt lat="48.28985692" lon="10.92736156"/>
      <trkpt lat="48.28988949" lon="10.92735781"/>
      <trkpt lat="48.28994209" lon="10.92735637"/>
      <trkpt lat="48.28997205" lon="10.92735428"/>
      <trkpt lat="48.29000111" lon="10.92735232"/>
      <trkpt lat="48.29003177" lon="10.92735641"/>
      <trkpt lat="48.29006051" lon="10.92736279"/>
      <trkpt lat="48.29009252" lon="10.92736643"/>
      <trkpt lat="48.29012385" lon="10.92736925"/>
      <trkpt lat="48.29015499" lon="10.92736806"/>
      <trkpt lat="48.29018667" lon="10.92736644"/>
      <trkpt lat="48.29021898" lon="10.92736308"/>
      <trkpt lat="48.29025141" lon="10.92735985"/>
      <trkpt lat="48.29028658" lon="10.92736017"/>
      <trkpt lat="48.29032279" lon="10.92736251"/>
      <trkpt lat="48.29035883" lon="10.92736214"/>
      <trkpt lat="48.29039253" lon="10.92736047"/>
      <trkpt lat="48.29042822" lon="10.92735631"/>
      <trkpt lat="48.29046293" lon="10.92735506"/>
      <trkpt lat="48.29049596" lon="10.92735882"/>
      <trkpt lat="48.29052958" lon="10.927362"/>
      <trkpt lat="48.29056211" lon="10.92736571"/>
      <trkpt lat="48.29059733" lon="10.92736873"/>
      <trkpt lat="48.29063215" lon="10.92736849"/>
      <trkpt lat="48.2906651" lon="10.92736811"/>
      <trkpt lat="48.29069671" lon="10.92736945"/>
      <trkpt lat="48.29073198" lon="10.92737108"/>
      <trkpt lat="48.29076591" lon="10.92737478"/>
      <trkpt lat="48.29080249" lon="10.92737738"/>
      <trkpt lat="48.29083524" lon="10.92737657"/>
      <trkpt lat="48.29086571" lon="10.92737766"/>
      <trkpt lat="48.29089757" lon="10.9273741"/>
      <trkpt lat="48.29092772" lon="10.92737131"/>
      <trkpt lat="48.29095635" lon="10.92737288"/>
      <trkpt lat="48.29100763" lon="10.92737477"/>
      <trkpt lat="48.29103573" lon="10.92737411"/>
      <trkpt lat="48.29108978" lon="10.92737108"/>
      <trkpt lat="48.29114274" lon="10.92736392"/>
      <trkpt lat="48.29117079" lon="10.92736302"/>
      <trkpt lat="48.29122124" lon="10.92736547"/>
      <trkpt lat="48.29127148" lon="10.92736154"/>
      <trkpt lat="48.29132406" lon="10.92736197"/>
      <trkpt lat="48.29135193" lon="10.92736183"/>
      <trkpt lat="48.29138056" lon="10.92736195"/>
      <trkpt lat="48.29141038" lon="10.92736131"/>
      <trkpt lat="48.29143801" lon="10.92736099"/>
      <trkpt lat="48.29146578" lon="10.92736235"/>
      <trkpt lat="48.29149298" lon="10.9273641"/>
      <trkpt lat="48.29152158" lon="10.92736262"/>
      <trkpt lat="48.291552" lon="10.92735814"/>
      <trkpt lat="48.29158172" lon="10.92735297"/>
      <trkpt lat="48.29161127" lon="10.92735116"/>
      <trkpt lat="48.29164" lon="10.92735411"/>
      <trkpt lat="48.29167161" lon="10.92735568"/>
      <trkpt lat="48.29170279" lon="10.92735481"/>
      <trkpt lat="48.2917337" lon="10.92735692"/>
      <trkpt lat="48.29176337" lon="10.92735873"/>
      <trkpt lat="48.29179401" lon="10.92736137"/>
      <trkpt lat="48.2918233" lon="10.92735962"/>
      <trkpt lat="48.29185084" lon="10.92735481"/>
      <trkpt lat="48.29190781" lon="10.92735811"/>
      <trkpt lat="48.29194104" lon="10.92735946"/>
      <trkpt lat="48.29197517" lon="10.92736042"/>
      <trkpt lat="48.29200841" lon="10.92736032"/>
      <trkpt lat="48.29204403" lon="10.92736193"/>
      <trkpt lat="48.29207917" lon="10.92736797"/>
      <trkpt lat="48.29211344" lon="10.92737141"/>
      <trkpt lat="48.29214794" lon="10.92737345"/>
      <trkpt lat="48.29218212" lon="10.92737498"/>
      <trkpt lat="48.29221437" lon="10.92737863"/>
      <trkpt lat="48.29224578" lon="10.92738695"/>
      <trkpt lat="48.29227706" lon="10.92739703"/>
      <trkpt lat="48.29230482" lon="10.92740302"/>
      <trkpt lat="48.29233529" lon="10.92741224"/>
      <trkpt lat="48.29236674" lon="10.92742405"/>
      <trkpt lat="48.29239309" lon="10.92743572"/>
      <trkpt lat="48.29241895" lon="10.92744834"/>
      <trkpt lat="48.29244794" lon="10.92746117"/>
      <trkpt lat="48.29247572" lon="10.92747588"/>
      <trkpt lat="48.2925007" lon="10.92749187"/>
      <trkpt lat="48.29252689" lon="10.92750919"/>
      <trkpt lat="48.29255129" lon="10.9275273"/>
      <trkpt lat="48.29257653" lon="10.92754249"/>
      <trkpt lat="48.29260193" lon="10.92755637"/>
      <trkpt lat="48.29265282" lon="10.92758844"/>
      <trkpt lat="48.29268139" lon="10.92760643"/>
      <trkpt lat="48.29271178" lon="10.92762305"/>
      <trkpt lat="48.29273752" lon="10.92763915"/>
      <trkpt lat="48.29276391" lon="10.92765522"/>
      <trkpt lat="48.29278922" lon="10.92767153"/>
      <trkpt lat="48.2928162" lon="10.92768938"/>
      <trkpt lat="48.29284151" lon="10.92770662"/>
      <trkpt lat="48.29286913" lon="10.92772227"/>
      <trkpt lat="48.29289495" lon="10.92773685"/>
      <trkpt lat="48.29294326" lon="10.92776919"/>
      <trkpt lat="48.29299251" lon="10.92778553"/>
      <trkpt lat="48.29301883" lon="10.9277749"/>
      <trkpt lat="48.29304301" lon="10.92771914"/>
      <trkpt lat="48.29305151" lon="10.92765963"/>
      <trkpt lat="48.29306393" lon="10.92760288"/>
      <trkpt lat="48.29307536" lon="10.92754493"/>
      <trkpt lat="48.29309695" lon="10.92748478"/>
      <trkpt lat="48.29311355" lon="10.92741387"/>
      <trkpt lat="48.29312638" lon="10.92734474"/>
      <trkpt lat="48.29314016" lon="10.92728078"/>
      <trkpt lat="48.29315891" lon="10.92720989"/>
      <trkpt lat="48.29317241" lon="10.92713287"/>
      <trkpt lat="48.29317942" lon="10.92709008"/>
      <trkpt lat="48.29318849" lon="10.92704778"/>
      <trkpt lat="48.29319708" lon="10.92700815"/>
      <trkpt lat="48.29320717" lon="10.92696421"/>
      <trkpt lat="48.29321736" lon="10.92691805"/>
      <trkpt lat="48.2932258" lon="10.92687175"/>
      <trkpt lat="48.29323104" lon="10.92682744"/>
      <trkpt lat="48.29323676" lon="10.9267844"/>
      <trkpt lat="48.29324554" lon="10.92673974"/>
      <trkpt lat="48.29325484" lon="10.9266949"/>
      <trkpt lat="48.293264" lon="10.92665086"/>
      <trkpt lat="48.29327327" lon="10.92660648"/>
      <trkpt lat="48.29328084" lon="10.92656392"/>
      <trkpt lat="48.29328735" lon="10.92652341"/>
      <trkpt lat="48.29329629" lon="10.92648148"/>
      <trkpt lat="48.29330545" lon="10.92644156"/>
      <trkpt lat="48.29331365" lon="10.92640078"/>
      <trkpt lat="48.29332307" lon="10.92636176"/>
      <trkpt lat="48.29333335" lon="10.92629419"/>
      <trkpt lat="48.29334445" lon="10.9262392"/>
      <trkpt lat="48.29335292" lon="10.9261952"/>
      <trkpt lat="48.29336172" lon="10.92614088"/>
      <trkpt lat="48.29337857" lon="10.92608579"/>
      <trkpt lat="48.29339424" lon="10.92601845"/>
      <trkpt lat="48.29340767" lon="10.92595321"/>
      <trkpt lat="48.29341911" lon="10.92588096"/>
      <trkpt lat="48.29343692" lon="10.92580039"/>
      <trkpt lat="48.29344519" lon="10.92575977"/>
      <trkpt lat="48.29345645" lon="10.92571628"/>
      <trkpt lat="48.29346966" lon="10.92567757"/>
      <trkpt lat="48.29347868" lon="10.92563918"/>
      <trkpt lat="48.29348754" lon="10.92560079"/>
      <trkpt lat="48.29349633" lon="10.92556158"/>
      <trkpt lat="48.29350828" lon="10.92548396"/>
      <trkpt lat="48.29351482" lon="10.92544466"/>
      <trkpt lat="48.2935229" lon="10.92540461"/>
      <trkpt lat="48.29353251" lon="10.92536561"/>
      <trkpt lat="48.29354065" lon="10.92532563"/>
      <trkpt lat="48.29355108" lon="10.92526159"/>
      <trkpt lat="48.29356922" lon="10.92518573"/>
      <trkpt lat="48.29357779" lon="10.92514319"/>
      <trkpt lat="48.29358787" lon="10.92510252"/>
      <trkpt lat="48.29359818" lon="10.9250634"/>
      <trkpt lat="48.2936099" lon="10.92502122"/>
      <trkpt lat="48.29362175" lon="10.92498111"/>
      <trkpt lat="48.29363602" lon="10.92490622"/>
      <trkpt lat="48.29364763" lon="10.92483284"/>
      <trkpt lat="48.29365568" lon="10.92479309"/>
      <trkpt lat="48.29366664" lon="10.92472067"/>
      <trkpt lat="48.29367983" lon="10.92464178"/>
      <trkpt lat="48.29369626" lon="10.92457322"/>
      <trkpt lat="48.29370799" lon="10.92450068"/>
      <trkpt lat="48.29371926" lon="10.92444133"/>
      <trkpt lat="48.2937354" lon="10.9243757"/>
      <trkpt lat="48.29375235" lon="10.92432273"/>
      <trkpt lat="48.29375491" lon="10.9242521"/>
      <trkpt lat="48.29377002" lon="10.92417763"/>
      <trkpt lat="48.29378158" lon="10.92410329"/>
      <trkpt lat="48.29379917" lon="10.92403284"/>
      <trkpt lat="48.29380696" lon="10.92396097"/>
      <trkpt lat="48.29382407" lon="10.92390186"/>
      <trkpt lat="48.29383422" lon="10.92383489"/>
      <trkpt lat="48.29384116" lon="10.92376073"/>
      <trkpt lat="48.29385358" lon="10.92368858"/>
      <trkpt lat="48.29386377" lon="10.92363197"/>
      <trkpt lat="48.29387236" lon="10.92359301"/>
      <trkpt lat="48.29388868" lon="10.92354716"/>
      <trkpt lat="48.29389948" lon="10.92349889"/>
      <trkpt lat="48.29390944" lon="10.92343851"/>
      <trkpt lat="48.29392513" lon="10.92337763"/>
      <trkpt lat="48.29395111" lon="10.92333271"/>
      <trkpt lat="48.29398039" lon="10.92330173"/>
      <trkpt lat="48.29401694" lon="10.92329322"/>
      <trkpt lat="48.29406185" lon="10.92330233"/>
      <trkpt lat="48.29410217" lon="10.92332635"/>
      <trkpt lat="48.29415474" lon="10.92335376"/>
      <trkpt lat="48.29418411" lon="10.92336856"/>
      <trkpt lat="48.29421188" lon="10.923384"/>
      <trkpt lat="48.2942386" lon="10.92339695"/>
      <trkpt lat="48.29426541" lon="10.9234107"/>
      <trkpt lat="48.29429601" lon="10.92342485"/>
      <trkpt lat="48.29432737" lon="10.923437"/>
      <trkpt lat="48.29435757" lon="10.92344773"/>
      <trkpt lat="48.2944103" lon="10.9234758"/>
      <trkpt lat="48.29444192" lon="10.92349146"/>
      <trkpt lat="48.29447595" lon="10.92350538"/>
      <trkpt lat="48.29451404" lon="10.92352"/>
      <trkpt lat="48.2945517" lon="10.92353309"/>
      <trkpt lat="48.29458934" lon="10.92354542"/>
      <trkpt lat="48.294625" lon="10.92355609"/>
      <trkpt lat="48.29465828" lon="10.92356563"/>
      <trkpt lat="48.2946893" lon="10.92357606"/>
      <trkpt lat="48.29472228" lon="10.92358875"/>
      <trkpt lat="48.2947537" lon="10.92360347"/>
      <trkpt lat="48.29478511" lon="10.92362098"/>
      <trkpt lat="48.29481433" lon="10.92363525"/>
      <trkpt lat="48.29484472" lon="10.92364548"/>
      <trkpt lat="48.29489284" lon="10.92366853"/>
      <trkpt lat="48.29491932" lon="10.92368503"/>
      <trkpt lat="48.29494579" lon="10.9236971"/>
      <trkpt lat="48.2949723" lon="10.92370574"/>
      <trkpt lat="48.29499914" lon="10.9237165"/>
      <trkpt lat="48.29502707" lon="10.92372855"/>
      <trkpt lat="48.29505356" lon="10.92373979"/>
      <trkpt lat="48.2951046" lon="10.92376377"/>
      <trkpt lat="48.29513141" lon="10.92377666"/>
      <trkpt lat="48.29516019" lon="10.92379083"/>
      <trkpt lat="48.29519005" lon="10.92380791"/>
      <trkpt lat="48.29521845" lon="10.92382034"/>
      <trkpt lat="48.29525133" lon="10.923827"/>
      <trkpt lat="48.29527906" lon="10.92383346"/>
      <trkpt lat="48.29533165" lon="10.92385591"/>
      <trkpt lat="48.29535932" lon="10.92386947"/>
      <trkpt lat="48.29540789" lon="10.92387955"/>
      <trkpt lat="48.29544894" lon="10.92389885"/>
      <trkpt lat="48.29548958" lon="10.92391862"/>
      <trkpt lat="48.29553827" lon="10.92393533"/>
      <trkpt lat="48.29558657" lon="10.92395508"/>
      <trkpt lat="48.29563027" lon="10.92399132"/>
      <trkpt lat="48.29565772" lon="10.92400683"/>
      <trkpt lat="48.29568676" lon="10.92401895"/>
      <trkpt lat="48.29571629" lon="10.92403133"/>
      <trkpt lat="48.29574622" lon="10.92404654"/>
      <trkpt lat="48.29577978" lon="10.92406458"/>
      <trkpt lat="48.29581659" lon="10.92408355"/>
      <trkpt lat="48.29585262" lon="10.92409872"/>
      <trkpt lat="48.29588193" lon="10.92411128"/>
      <trkpt lat="48.29592481" lon="10.92412391"/>
      <trkpt lat="48.29596685" lon="10.92413957"/>
      <trkpt lat="48.29601361" lon="10.92416397"/>
      <trkpt lat="48.29606102" lon="10.92418234"/>
      <trkpt lat="48.29610343" lon="10.92419597"/>
      <trkpt lat="48.29614173" lon="10.92421621"/>
      <trkpt lat="48.29617606" lon="10.92423726"/>
      <trkpt lat="48.29620657" lon="10.92425183"/>
      <trkpt lat="48.29623744" lon="10.92426338"/>
      <trkpt lat="48.29626908" lon="10.92427568"/>
      <trkpt lat="48.29629735" lon="10.92428643"/>
      <trkpt lat="48.29632359" lon="10.92429771"/>
      <trkpt lat="48.29634986" lon="10.92431172"/>
      <trkpt lat="48.2963956" lon="10.92434236"/>
      <trkpt lat="48.29642187" lon="10.92435281"/>
      <trkpt lat="48.2964512" lon="10.9243621"/>
      <trkpt lat="48.29647851" lon="10.92437486"/>
      <trkpt lat="48.29650968" lon="10.9243876"/>
      <trkpt lat="48.29654314" lon="10.92439956"/>
      <trkpt lat="48.2965742" lon="10.92440685"/>
      <trkpt lat="48.29660241" lon="10.92441254"/>
      <trkpt lat="48.29663017" lon="10.92442231"/>
      <trkpt lat="48.29665788" lon="10.9244333"/>
      <trkpt lat="48.29668632" lon="10.92444393"/>
      <trkpt lat="48.29671719" lon="10.92445446"/>
      <trkpt lat="48.29674903" lon="10.92446485"/>
      <trkpt lat="48.29678081" lon="10.924476"/>
      <trkpt lat="48.29681121" lon="10.92448838"/>
      <trkpt lat="48.29684265" lon="10.92450291"/>
      <trkpt lat="48.29687386" lon="10.92451683"/>
      <trkpt lat="48.29690473" lon="10.92453193"/>
      <trkpt lat="48.29693557" lon="10.92454783"/>
      <trkpt lat="48.29696515" lon="10.92456407"/>
      <trkpt lat="48.29699311" lon="10.92457879"/>
      <trkpt lat="48.29702297" lon="10.92459184"/>
      <trkpt lat="48.2970548" lon="10.92460389"/>
      <trkpt lat="48.29708603" lon="10.92461402"/>
      <trkpt lat="48.29711382" lon="10.92462507"/>
      <trkpt lat="48.29714231" lon="10.92463737"/>
      <trkpt lat="48.29717296" lon="10.92465474"/>
      <trkpt lat="48.29720067" lon="10.92467234"/>
      <trkpt lat="48.29722829" lon="10.92468905"/>
      <trkpt lat="48.29725699" lon="10.92470478"/>
      <trkpt lat="48.29728499" lon="10.92471728"/>
      <trkpt lat="48.29731289" lon="10.92472886"/>
      <trkpt lat="48.29733896" lon="10.92474217"/>
      <trkpt lat="48.2973688" lon="10.92475422"/>
      <trkpt lat="48.29739872" lon="10.92476626"/>
      <trkpt lat="48.29742635" lon="10.92477753"/>
      <trkpt lat="48.29747468" lon="10.92478925"/>
      <trkpt lat="48.29752127" lon="10.92480989"/>
      <trkpt lat="48.29756812" lon="10.92483455"/>
      <trkpt lat="48.29761719" lon="10.92485447"/>
      <trkpt lat="48.29764348" lon="10.92486893"/>
      <trkpt lat="48.29767023" lon="10.92488333"/>
      <trkpt lat="48.29770001" lon="10.92489463"/>
      <trkpt lat="48.29773009" lon="10.9249044"/>
      <trkpt lat="48.2977592" lon="10.92491572"/>
      <trkpt lat="48.29778761" lon="10.9249283"/>
      <trkpt lat="48.29781528" lon="10.92493949"/>
      <trkpt lat="48.29784381" lon="10.92495002"/>
      <trkpt lat="48.29787528" lon="10.92495873"/>
      <trkpt lat="48.2979045" lon="10.92496912"/>
      <trkpt lat="48.29793347" lon="10.92498334"/>
      <trkpt lat="48.29796134" lon="10.92500035"/>
      <trkpt lat="48.29799348" lon="10.92501639"/>
      <trkpt lat="48.29802502" lon="10.9250251"/>
      <trkpt lat="48.29805561" lon="10.92503563"/>
      <trkpt lat="48.29808599" lon="10.92504561"/>
      <trkpt lat="48.29811836" lon="10.92506075"/>
      <trkpt lat="48.29814825" lon="10.92507787"/>
      <trkpt lat="48.29818045" lon="10.92509504"/>
      <trkpt lat="48.29821154" lon="10.92511035"/>
      <trkpt lat="48.29823882" lon="10.92512626"/>
      <trkpt lat="48.29826465" lon="10.92514429"/>
      <trkpt lat="48.29831051" lon="10.92517427"/>
      <trkpt lat="48.29835911" lon="10.92519298"/>
      <trkpt lat="48.29840427" lon="10.92521854"/>
      <trkpt lat="48.2984427" lon="10.92524"/>
      <trkpt lat="48.29848063" lon="10.92525815"/>
      <trkpt lat="48.29851373" lon="10.92527423"/>
      <trkpt lat="48.29855317" lon="10.9252933"/>
      <trkpt lat="48.29859904" lon="10.92530928"/>
      <trkpt lat="48.29864776" lon="10.92532187"/>
      <trkpt lat="48.29867535" lon="10.92533356"/>
      <trkpt lat="48.29870611" lon="10.92534605"/>
      <trkpt lat="48.29873411" lon="10.92535748"/>
      <trkpt lat="48.29876136" lon="10.92536816"/>
      <trkpt lat="48.29878855" lon="10.92537835"/>
      <trkpt lat="48.29882083" lon="10.92538601"/>
      <trkpt lat="48.29885123" lon="10.9253953"/>
      <trkpt lat="48.29890951" lon="10.92541161"/>
      <trkpt lat="48.29894452" lon="10.92541942"/>
      <trkpt lat="48.29897816" lon="10.92542919"/>
      <trkpt lat="48.29901508" lon="10.92544126"/>
      <trkpt lat="48.29905109" lon="10.92545177"/>
      <trkpt lat="48.29908274" lon="10.92546052"/>
      <trkpt lat="48.29911127" lon="10.92546862"/>
      <trkpt lat="48.29914081" lon="10.92547638"/>
      <trkpt lat="48.29916827" lon="10.92548275"/>
      <trkpt lat="48.2991966" lon="10.92548897"/>
      <trkpt lat="48.29924537" lon="10.92550512"/>
      <trkpt lat="48.29929451" lon="10.92552219"/>
      <trkpt lat="48.29932269" lon="10.92553016"/>
      <trkpt lat="48.29935476" lon="10.92553803"/>
      <trkpt lat="48.29938484" lon="10.92554404"/>
      <trkpt lat="48.29941328" lon="10.92554994"/>
      <trkpt lat="48.29944131" lon="10.92555488"/>
      <trkpt lat="48.29946932" lon="10.92555648"/>
      <trkpt lat="48.2994964" lon="10.92555641"/>
      <trkpt lat="48.2995235" lon="10.92555875"/>
      <trkpt lat="48.29957576" lon="10.92556933"/>
      <trkpt lat="48.2996063" lon="10.9255742"/>
      <trkpt lat="48.29963708" lon="10.92557647"/>
      <trkpt lat="48.29966579" lon="10.92557886"/>
      <trkpt lat="48.29969808" lon="10.92558349"/>
      <trkpt lat="48.29973386" lon="10.92559017"/>
      <trkpt lat="48.29976982" lon="10.92559667"/>
      <trkpt lat="48.29980825" lon="10.92560238"/>
      <trkpt lat="48.29984588" lon="10.92560527"/>
      <trkpt lat="48.29988076" lon="10.92560316"/>
      <trkpt lat="48.29991152" lon="10.92560271"/>
      <trkpt lat="48.29994057" lon="10.92560007"/>
      <trkpt lat="48.29996837" lon="10.92560109"/>
      <trkpt lat="48.30000905" lon="10.92560736"/>
      <trkpt lat="48.3000552" lon="10.92561304"/>
      <trkpt lat="48.30010064" lon="10.92561674"/>
      <trkpt lat="48.30014515" lon="10.92562187"/>
      <trkpt lat="48.30018788" lon="10.92563106"/>
      <trkpt lat="48.30022797" lon="10.92564672"/>
      <trkpt lat="48.30026286" lon="10.92566362"/>
      <trkpt lat="48.30029513" lon="10.9256779"/>
      <trkpt lat="48.3003281" lon="10.92569285"/>
      <trkpt lat="48.30035809" lon="10.9257073"/>
      <trkpt lat="48.30038397" lon="10.92572288"/>
      <trkpt lat="48.30040855" lon="10.92573966"/>
      <trkpt lat="48.30043275" lon="10.92576265"/>
      <trkpt lat="48.30046073" lon="10.92579017"/>
      <trkpt lat="48.30048805" lon="10.92582008"/>
      <trkpt lat="48.30051603" lon="10.92584977"/>
      <trkpt lat="48.30054195" lon="10.92587914"/>
      <trkpt lat="48.30056748" lon="10.92590433"/>
      <trkpt lat="48.3005949" lon="10.92593079"/>
      <trkpt lat="48.30062227" lon="10.92595822"/>
      <trkpt lat="48.30065115" lon="10.92598579"/>
      <trkpt lat="48.30067936" lon="10.92601336"/>
      <trkpt lat="48.30070415" lon="10.92604103"/>
      <trkpt lat="48.30072977" lon="10.92606432"/>
      <trkpt lat="48.3007604" lon="10.9260846"/>
      <trkpt lat="48.30078707" lon="10.92610793"/>
      <trkpt lat="48.30081083" lon="10.92612991"/>
      <trkpt lat="48.30083593" lon="10.92615117"/>
      <trkpt lat="48.30086166" lon="10.92616909"/>
      <trkpt lat="48.30088943" lon="10.92618584"/>
      <trkpt lat="48.30091693" lon="10.92620398"/>
      <trkpt lat="48.30094689" lon="10.92622911"/>
      <trkpt lat="48.30097385" lon="10.92625247"/>
      <trkpt lat="48.3009999" lon="10.92627161"/>
      <trkpt lat="48.30104208" lon="10.92631146"/>
      <trkpt lat="48.30107889" lon="10.92634341"/>
      <trkpt lat="48.30112192" lon="10.9263663"/>
      <trkpt lat="48.30116997" lon="10.92638946"/>
      <trkpt lat="48.30122028" lon="10.92640392"/>
      <trkpt lat="48.30124754" lon="10.92641077"/>
      <trkpt lat="48.30127506" lon="10.92642056"/>
      <trkpt lat="48.30130435" lon="10.92643329"/>
      <trkpt lat="48.30133388" lon="10.92644211"/>
      <trkpt lat="48.3013632" lon="10.92644957"/>
      <trkpt lat="48.3014112" lon="10.92647064"/>
      <trkpt lat="48.30146102" lon="10.92650131"/>
      <trkpt lat="48.30151537" lon="10.92653031"/>
      <trkpt lat="48.30154491" lon="10.92654585"/>
      <trkpt lat="48.3015746" lon="10.92655628"/>
      <trkpt lat="48.3016067" lon="10.92656193"/>
      <trkpt lat="48.30165364" lon="10.92658163"/>
      <trkpt lat="48.30170312" lon="10.92660619"/>
      <trkpt lat="48.30172798" lon="10.9266222"/>
      <trkpt lat="48.30177384" lon="10.92663614"/>
      <trkpt lat="48.30182089" lon="10.9266549"/>
      <trkpt lat="48.30186588" lon="10.92668877"/>
      <trkpt lat="48.30191121" lon="10.92671546"/>
      <trkpt lat="48.3019642" lon="10.92672974"/>
      <trkpt lat="48.30199109" lon="10.9267438"/>
      <trkpt lat="48.30201758" lon="10.92675572"/>
      <trkpt lat="48.30206995" lon="10.92677115"/>
      <trkpt lat="48.30211383" lon="10.92679067"/>
      <trkpt lat="48.302123" lon="10.926742">
        <ele>500.47</ele>
      </trkpt>
      <trkpt lat="48.30322" lon="10.927205">
        <ele>499.74</ele>
      </trkpt>
      <trkpt lat="48.304523" lon="10.927859">
        <ele>499</ele>
      </trkpt>
      <trkpt lat="48.305257" lon="10.928144">
        <ele>499</ele>
      </trkpt>
      <trkpt lat="48.305835" lon="10.928412">
        <ele>499</ele>
      </trkpt>
      <trkpt lat="48.305982" lon="10.927409">
        <ele>499</ele>
      </trkpt>
      <trkpt lat="48.306155" lon="10.926359">
        <ele>498.44</ele>
      </trkpt>
      <trkpt lat="48.306231" lon="10.925723">
        <ele>499</ele>
      </trkpt>
      <trkpt lat="48.306577" lon="10.923212">
        <ele>499</ele>
      </trkpt>
      <trkpt lat="48.30665" lon="10.922758">
        <ele>499</ele>
      </trkpt>
      <trkpt lat="48.307323" lon="10.918967">
        <ele>498</ele>
      </trkpt>
      <trkpt lat="48.307447" lon="10.918513">
        <ele>498</ele>
      </trkpt>
      <trkpt lat="48.307704" lon="10.917635">
        <ele>498</ele>
      </trkpt>
      <trkpt lat="48.307771" lon="10.917548">
        <ele>498</ele>
      </trkpt>
      <trkpt lat="48.307758" lon="10.9168">
        <ele>498</ele>
      </trkpt>
    </trkseg>
  </trk>
</gpx>
