<?xml version="1.0" encoding="UTF-8"?>
<gpx version="1.1" creator="OS Maps" xmlns="http://www.topografix.com/GPX/1/1" xmlns:xsi="http://www.w3.org/2001/XMLSchema-instance" xsi:schemaLocation="http://www.topografix.com/GPX/1/1 http://www.topografix.com/GPX/1/1/gpx.xsd" xmlns:os="https://ordnancesurvey.co.uk/public/schema/route/0.1"><metadata><name>Home to Kuhsee</name><desc></desc><bounds minlat="48.307730" minlon="10.915010" maxlat="48.344840" maxlon="10.937650"/><extensions><os:activity>CYCLING_OFFROAD</os:activity><os:elevation_ascent>5.03164403301179</os:elevation_ascent><os:difficulty>NOTSET</os:difficulty><os:visibility>PRIVATE</os:visibility></extensions></metadata><wpt lat="48.308247" lon="10.915026"><ele>499.893314</ele></wpt><wpt lat="48.343180" lon="10.937650"><ele>487.999016</ele></wpt><trk><trkseg><trkpt lat="48.308247" lon="10.915026"/><trkpt lat="48.308250" lon="10.915040"/><trkpt lat="48.308100" lon="10.915010"/><trkpt lat="48.307730" lon="10.915010"/><trkpt lat="48.307770" lon="10.917550"/><trkpt lat="48.307810" lon="10.917640"/><trkpt lat="48.308750" lon="10.918290"/><trkpt lat="48.308930" lon="10.918440"/><trkpt lat="48.309090" lon="10.918640"/><trkpt lat="48.309360" lon="10.918900"/><trkpt lat="48.311480" lon="10.919670"/><trkpt lat="48.313000" lon="10.920380"/><trkpt lat="48.316630" lon="10.921930"/><trkpt lat="48.317500" lon="10.922310"/><trkpt lat="48.317620" lon="10.922390"/><trkpt lat="48.317710" lon="10.922500"/><trkpt lat="48.317740" lon="10.922630"/><trkpt lat="48.317850" lon="10.922850"/><trkpt lat="48.317920" lon="10.922960"/><trkpt lat="48.318060" lon="10.923080"/><trkpt lat="48.318910" lon="10.923560"/><trkpt lat="48.319040" lon="10.923670"/><trkpt lat="48.319140" lon="10.923770"/><trkpt lat="48.319370" lon="10.924130"/><trkpt lat="48.319480" lon="10.924270"/><trkpt lat="48.319670" lon="10.924460"/><trkpt lat="48.320830" lon="10.925220"/><trkpt lat="48.321410" lon="10.925640"/><trkpt lat="48.321840" lon="10.925880"/><trkpt lat="48.322740" lon="10.926240"/><trkpt lat="48.324200" lon="10.926260"/><trkpt lat="48.325240" lon="10.926710"/><trkpt lat="48.325970" lon="10.926750"/><trkpt lat="48.326370" lon="10.926820"/><trkpt lat="48.326990" lon="10.927040"/><trkpt lat="48.328220" lon="10.927610"/><trkpt lat="48.328770" lon="10.927930"/><trkpt lat="48.329890" lon="10.928680"/><trkpt lat="48.330270" lon="10.929000"/><trkpt lat="48.330600" lon="10.929220"/><trkpt lat="48.330840" lon="10.929340"/><trkpt lat="48.331560" lon="10.929220"/><trkpt lat="48.331800" lon="10.929060"/><trkpt lat="48.332290" lon="10.928670"/><trkpt lat="48.332550" lon="10.928580"/><trkpt lat="48.333190" lon="10.928550"/><trkpt lat="48.333850" lon="10.928600"/><trkpt lat="48.333940" lon="10.928540"/><trkpt lat="48.334120" lon="10.928250"/><trkpt lat="48.335480" lon="10.926770"/><trkpt lat="48.335920" lon="10.927050"/><trkpt lat="48.336140" lon="10.927230"/><trkpt lat="48.336670" lon="10.927930"/><trkpt lat="48.337270" lon="10.928760"/><trkpt lat="48.337490" lon="10.928990"/><trkpt lat="48.339030" lon="10.929840"/><trkpt lat="48.339470" lon="10.930110"/><trkpt lat="48.340060" lon="10.930400"/><trkpt lat="48.340600" lon="10.930550"/><trkpt lat="48.341400" lon="10.930730"/><trkpt lat="48.341710" lon="10.931000"/><trkpt lat="48.341990" lon="10.931340"/><trkpt lat="48.342500" lon="10.932090"/><trkpt lat="48.342560" lon="10.932140"/><trkpt lat="48.342650" lon="10.932250"/><trkpt lat="48.342790" lon="10.932330"/><trkpt lat="48.343110" lon="10.932320"/><trkpt lat="48.343420" lon="10.932410"/><trkpt lat="48.343920" lon="10.932800"/><trkpt lat="48.344380" lon="10.933270"/><trkpt lat="48.344840" lon="10.933890"/><trkpt lat="48.344820" lon="10.934310"/><trkpt lat="48.344380" lon="10.936380"/><trkpt lat="48.344360" lon="10.936400"/><trkpt lat="48.344270" lon="10.936360"/><trkpt lat="48.343950" lon="10.936850"/><trkpt lat="48.343870" lon="10.937430"/><trkpt lat="48.343700" lon="10.937330"/><trkpt lat="48.343560" lon="10.937310"/><trkpt lat="48.343320" lon="10.937450"/><trkpt lat="48.343250" lon="10.937520"/><trkpt lat="48.343180" lon="10.937650"/></trkseg></trk></gpx>
